{"type": "FeatureCollection", "features": [{"type": "Feature", "geometry": {"type": "Point", "coordinates": [76.9728184, 11.0363049]}, "properties": {"id": "w1238008955", "kind": "building", "street": "3rd Street, Sridevi Nagar", "use": "residential", "floors": 2, "match_status": "matched", "severity": "none", "review": false, "name": null}}, {"type": "Feature", "geometry": {"type": "Point", "coordinates": [76.9732676, 11.0368699]}, "properties": {"id": "w1251629262", "kind": "building", "street": "3rd Street, Sridevi Nagar", "use": null, "floors": null, "match_status": "matched", "severity": "none", "review": false, "name": null}}, {"type": "Feature", "geometry": {"type": "Point", "coordinates": [76.9724318, 11.0366261]}, "properties": {"id": "w1251629231", "kind": "building", "street": "3rd Street, Sridevi Nagar", "use": "commercial", "floors": null, "match_status": "discrepancy", "severity": "medium", "review": true, "name": "The Fotoz Factory"}}, {"type": "Feature", "geometry": {"type": "Point", "coordinates": [76.9718497, 11.0365415]}, "properties": {"id": "w1251629831", "kind": "building", "street": "3rd Street, Sridevi Nagar", "use": "residential", "floors": 1, "match_status": "matched", "severity": "none", "review": false, "name": null}}, {"type": "Feature", "geometry": {"type": "Point", "coordinates": [76.9730384, 11.0364464]}, "properties": {"id": "w1251629091", "kind": "building", "street": "3rd Street, Sridevi Nagar", "use": "residential", "floors": 2, "match_status": "matched", "severity": "none", "review": false, "name": null}}, {"type": "Feature", "geometry": {"type": "Point", "coordinates": [76.9718873, 11.0363429]}, "properties": {"id": "w1238009077", "kind": "building", "street": "3rd Street, Sridevi Nagar", "use": "residential", "floors": 2, "match_status": "matched", "severity": "none", "review": false, "name": null}}, {"type": "Feature", "geometry": {"type": "Point", "coordinates": [76.973193, 11.0364878]}, "properties": {"id": "w1251629762", "kind": "building", "street": "3rd Street, Sridevi Nagar", "use": "residential", "floors": 2, "match_status": "matched", "severity": "none", "review": false, "name": null}}, {"type": "Feature", "geometry": {"type": "Point", "coordinates": [76.9715948, 11.0365125]}, "properties": {"id": "w1238008994", "kind": "building", "street": "3rd Street, Sridevi Nagar", "use": null, "floors": null, "match_status": "matched", "severity": "none", "review": false, "name": null}}, {"type": "Feature", "geometry": {"type": "Point", "coordinates": [76.9720686, 11.0363684]}, "properties": {"id": "w1251629912", "kind": "building", "street": "3rd Street, Sridevi Nagar", "use": "residential", "floors": 2, "match_status": "matched", "severity": "none", "review": false, "name": null}}, {"type": "Feature", "geometry": {"type": "Point", "coordinates": [76.9721306, 11.0366849]}, "properties": {"id": "w1251629633", "kind": "building", "street": "3rd Street, Sridevi Nagar", "use": "residential", "floors": 2, "match_status": "matched", "severity": "none", "review": false, "name": null}}, {"type": "Feature", "geometry": {"type": "Point", "coordinates": [76.973471, 11.0365153]}, "properties": {"id": "w1251629736", "kind": "building", "street": "3rd Street, Sridevi Nagar", "use": "residential", "floors": 2, "match_status": "matched", "severity": "none", "review": true, "name": null}}, {"type": "Feature", "geometry": {"type": "Point", "coordinates": [76.9727062, 11.0364396]}, "properties": {"id": "w1238009028", "kind": "building", "street": "3rd Street, Sridevi Nagar", "use": "residential", "floors": 2, "match_status": "matched", "severity": "none", "review": false, "name": null}}, {"type": "Feature", "geometry": {"type": "Point", "coordinates": [76.9717181, 11.0363347]}, "properties": {"id": "w1251629238", "kind": "building", "street": "3rd Street, Sridevi Nagar", "use": "residential", "floors": 2, "match_status": "discrepancy", "severity": "medium", "review": true, "name": null}}, {"type": "Feature", "geometry": {"type": "Point", "coordinates": [76.9728652, 11.0366919]}, "properties": {"id": "w1251626626", "kind": "building", "street": "3rd Street, Sridevi Nagar", "use": null, "floors": null, "match_status": "matched", "severity": "none", "review": false, "name": null}}, {"type": "Feature", "geometry": {"type": "Point", "coordinates": [76.9734159, 11.0367036]}, "properties": {"id": "w1251629996", "kind": "building", "street": "3rd Street, Sridevi Nagar", "use": "commercial", "floors": 2, "match_status": "discrepancy", "severity": "medium", "review": true, "name": null}}, {"type": "Feature", "geometry": {"type": "Point", "coordinates": [76.9723203, 11.0364356]}, "properties": {"id": "w1251629186", "kind": "building", "street": "3rd Street, Sridevi Nagar", "use": "residential", "floors": 1, "match_status": "matched", "severity": "none", "review": false, "name": null}}, {"type": "Feature", "geometry": {"type": "Point", "coordinates": [76.9725047, 11.0363903]}, "properties": {"id": "w1251629797", "kind": "building", "street": "3rd Street, Sridevi Nagar", "use": null, "floors": null, "match_status": "matched", "severity": "none", "review": false, "name": null}}, {"type": "Feature", "geometry": {"type": "Point", "coordinates": [76.9730603, 11.0366758]}, "properties": {"id": "w1251629318", "kind": "building", "street": "3rd Street, Sridevi Nagar", "use": "residential", "floors": 2, "match_status": "matched", "severity": "none", "review": false, "name": null}}, {"type": "Feature", "geometry": {"type": "Point", "coordinates": [76.9732677, 11.0366821]}, "properties": {"id": "w1238009045", "kind": "building", "street": "3rd Street, Sridevi Nagar", "use": "residential", "floors": 2, "match_status": "discrepancy", "severity": "medium", "review": false, "name": null}}, {"type": "Feature", "geometry": {"type": "Point", "coordinates": [76.9719548, 11.0366828]}, "properties": {"id": "w1251629977", "kind": "building", "street": "3rd Street, Sridevi Nagar", "use": null, "floors": null, "match_status": "matched", "severity": "none", "review": false, "name": null}}, {"type": "Feature", "geometry": {"type": "Point", "coordinates": [76.9737755, 11.0364852]}, "properties": {"id": "w1238008968", "kind": "building", "street": "3rd Street, Sridevi Nagar", "use": null, "floors": null, "match_status": "matched", "severity": "none", "review": false, "name": null}}, {"type": "Feature", "geometry": {"type": "Point", "coordinates": [76.9729633, 11.0366549]}, "properties": {"id": "w1251629183", "kind": "building", "street": "3rd Street, Sridevi Nagar", "use": "residential", "floors": 2, "match_status": "discrepancy", "severity": "medium", "review": true, "name": null}}, {"type": "Feature", "geometry": {"type": "Point", "coordinates": [76.9728501, 11.0364642]}, "properties": {"id": "w1251629127", "kind": "building", "street": "3rd Street, Sridevi Nagar", "use": "residential", "floors": 1, "match_status": "matched", "severity": "none", "review": false, "name": null}}, {"type": "Feature", "geometry": {"type": "Point", "coordinates": [76.9727786, 11.0366451]}, "properties": {"id": "w1251626622", "kind": "building", "street": "3rd Street, Sridevi Nagar", "use": "residential", "floors": 2, "match_status": "discrepancy", "severity": "medium", "review": true, "name": null}}, {"type": "Feature", "geometry": {"type": "Point", "coordinates": [76.9728985, 11.0364765]}, "properties": {"id": "w1238008980", "kind": "building", "street": "3rd Street, Sridevi Nagar", "use": null, "floors": null, "match_status": "matched", "severity": "none", "review": false, "name": null}}, {"type": "Feature", "geometry": {"type": "Point", "coordinates": [76.9735376, 11.0365803]}, "properties": {"id": "asset-0000", "kind": "streetlight", "confidence": "low", "street": "3rd Street, Sridevi Nagar", "uncertainty_m": 3.5, "register_status": "unconfirmed_detection"}}, {"type": "Feature", "geometry": {"type": "Point", "coordinates": [76.9731056, 11.0366115]}, "properties": {"id": "asset-0001", "kind": "streetlight", "confidence": "high", "street": "3rd Street, Sridevi Nagar", "uncertainty_m": 3.5, "register_status": "discrepancy"}}, {"type": "Feature", "geometry": {"type": "Point", "coordinates": [76.9722191, 11.0365239]}, "properties": {"id": "asset-0002", "kind": "pole", "confidence": "low", "street": "3rd Street, Sridevi Nagar", "uncertainty_m": 3.5, "register_status": "unconfirmed_detection"}}, {"type": "Feature", "geometry": {"type": "Point", "coordinates": [76.9724831, 11.036514]}, "properties": {"id": "asset-0003", "kind": "pole", "confidence": "medium", "street": "3rd Street, Sridevi Nagar", "uncertainty_m": 3.5, "register_status": "discrepancy"}}, {"type": "Feature", "geometry": {"type": "Point", "coordinates": [76.9732574, 11.0366243]}, "properties": {"id": "asset-0004", "kind": "pole", "confidence": "low", "street": "3rd Street, Sridevi Nagar", "uncertainty_m": 3.5, "register_status": "unconfirmed_detection"}}, {"type": "Feature", "geometry": {"type": "Point", "coordinates": [76.9716308, 11.0364681]}, "properties": {"id": "asset-0005", "kind": "pole", "confidence": "low", "street": "3rd Street, Sridevi Nagar", "uncertainty_m": 3.5, "register_status": "unconfirmed_detection"}}, {"type": "Feature", "geometry": {"type": "Point", "coordinates": [76.9726011, 11.0365646]}, "properties": {"id": "asset-0006", "kind": "pole", "confidence": "low", "street": "3rd Street, Sridevi Nagar", "uncertainty_m": 3.5, "register_status": "unconfirmed_detection"}}, {"type": "Feature", "geometry": {"type": "Point", "coordinates": [76.9726984, 11.0365744]}, "properties": {"id": "asset-0007", "kind": "streetlight", "confidence": "low", "street": "3rd Street, Sridevi Nagar", "uncertainty_m": 3.5, "register_status": "unconfirmed_detection"}}, {"type": "Feature", "geometry": {"type": "Point", "coordinates": [76.9732314, 11.0367092]}, "properties": {"id": "asset-0008", "kind": "pole", "confidence": "low", "street": "3rd Street, Sridevi Nagar", "uncertainty_m": 3.5, "register_status": "unconfirmed_detection"}}, {"type": "Feature", "geometry": {"type": "Point", "coordinates": [76.9717949, 11.0364392]}, "properties": {"id": "asset-0009", "kind": "pole", "confidence": "low", "street": "3rd Street, Sridevi Nagar", "uncertainty_m": 3.5, "register_status": "unconfirmed_detection"}}, {"type": "Feature", "geometry": {"type": "Point", "coordinates": [76.9734558, 11.0366724]}, "properties": {"id": "asset-0010", "kind": "pole", "confidence": "medium", "street": "3rd Street, Sridevi Nagar", "uncertainty_m": 3.5, "register_status": "matched"}}, {"type": "Feature", "geometry": {"type": "Point", "coordinates": [76.9721188, 11.0364752]}, "properties": {"id": "asset-0011", "kind": "pole", "confidence": "low", "street": "3rd Street, Sridevi Nagar", "uncertainty_m": 3.5, "register_status": "unconfirmed_detection"}}, {"type": "Feature", "geometry": {"type": "Point", "coordinates": [76.9735416, 11.0366726]}, "properties": {"id": "asset-0012", "kind": "pole", "confidence": "low", "street": "3rd Street, Sridevi Nagar", "uncertainty_m": 3.5, "register_status": "unconfirmed_detection"}}, {"type": "Feature", "geometry": {"type": "Point", "coordinates": [76.9724816, 11.0365654]}, "properties": {"id": "asset-0013", "kind": "pole", "confidence": "low", "street": "3rd Street, Sridevi Nagar", "uncertainty_m": 3.5, "register_status": "unconfirmed_detection"}}, {"type": "Feature", "geometry": {"type": "Point", "coordinates": [76.9731883, 11.0365813]}, "properties": {"id": "asset-0014", "kind": "pole", "confidence": "low", "street": "3rd Street, Sridevi Nagar", "uncertainty_m": 3.5, "register_status": "unconfirmed_detection"}}, {"type": "Feature", "geometry": {"type": "Point", "coordinates": [76.9717141, 11.0364191]}, "properties": {"id": "asset-0015", "kind": "pole", "confidence": "low", "street": "3rd Street, Sridevi Nagar", "uncertainty_m": 3.5, "register_status": "unconfirmed_detection"}}, {"type": "Feature", "geometry": {"type": "LineString", "coordinates": [[76.97228339445472, 11.03651667995031], [76.97173191219949, 11.03645874255389]]}, "properties": {"id": "gap60-000", "kind": "streetlight_gap", "street": "3rd Street, Sridevi Nagar", "length_m": 73, "gap_type": "poles present, no lamp detected"}}, {"type": "Feature", "geometry": {"type": "Point", "coordinates": [76.9734299, 11.0367702]}, "properties": {"id": "ub-0000", "kind": "unmapped_business", "name": "m.m. refrigeration", "street": "3rd Street, Sridevi Nagar", "approximate": true}}]}