{"type": "FeatureCollection", "features": [{"type": "Feature", "geometry": {"type": "Point", "coordinates": [78.1173577, 9.9232491]}, "properties": {"id": "ms_9.923249_78.117358", "kind": "building", "street": "Vadakku Masi Veethi", "use": "residential", "floors": 3, "match_status": "matched", "severity": "none", "review": false, "name": null}}, {"type": "Feature", "geometry": {"type": "Point", "coordinates": [78.1151182, 9.9225417]}, "properties": {"id": "ms_9.922542_78.115118", "kind": "building", "street": "Vadakku Masi Veethi", "use": "commercial", "floors": 2, "match_status": "matched", "severity": "none", "review": false, "name": null}}, {"type": "Feature", "geometry": {"type": "Point", "coordinates": [78.1164568, 9.9231159]}, "properties": {"id": "ms_9.923116_78.116457", "kind": "building", "street": "Vadakku Masi Veethi", "use": "commercial", "floors": 2, "match_status": "matched", "severity": "none", "review": false, "name": "SHIVAM TRADE"}}, {"type": "Feature", "geometry": {"type": "Point", "coordinates": [78.1171116, 9.9231724]}, "properties": {"id": "ms_9.923172_78.117112", "kind": "building", "street": "Vadakku Masi Veethi", "use": "commercial", "floors": 2, "match_status": "matched", "severity": "none", "review": false, "name": null}}, {"type": "Feature", "geometry": {"type": "Point", "coordinates": [78.1149739, 9.9234172]}, "properties": {"id": "w772348784", "kind": "building", "street": "Vadakku Masi Veethi", "use": "commercial", "floors": 2, "match_status": "matched", "severity": "none", "review": false, "name": null}}, {"type": "Feature", "geometry": {"type": "Point", "coordinates": [78.1161404, 9.9231248]}, "properties": {"id": "ms_9.923125_78.116140", "kind": "building", "street": "Vadakku Masi Veethi", "use": "institutional", "floors": 2, "match_status": "matched", "severity": "none", "review": false, "name": null}}, {"type": "Feature", "geometry": {"type": "Point", "coordinates": [78.1172875, 9.9227184]}, "properties": {"id": "ms_9.922718_78.117288", "kind": "building", "street": "Vadakku Masi Veethi", "use": "residential", "floors": 3, "match_status": "matched", "severity": "none", "review": false, "name": "S.T. Natarajan & Sons"}}, {"type": "Feature", "geometry": {"type": "Point", "coordinates": [78.1179337, 9.9232174]}, "properties": {"id": "ms_9.923217_78.117934", "kind": "building", "street": "Vadakku Masi Veethi", "use": "commercial", "floors": 3, "match_status": "matched", "severity": "none", "review": false, "name": "VIJAYALAKSHMI"}}, {"type": "Feature", "geometry": {"type": "Point", "coordinates": [78.116213, 9.9226126]}, "properties": {"id": "ms_9.922613_78.116213", "kind": "building", "street": "Vadakku Masi Veethi", "use": "residential", "floors": 4, "match_status": "matched", "severity": "none", "review": false, "name": null}}, {"type": "Feature", "geometry": {"type": "Point", "coordinates": [78.1184363, 9.9232042]}, "properties": {"id": "ms_9.923204_78.118436", "kind": "building", "street": "Vadakku Masi Veethi", "use": "commercial", "floors": 3, "match_status": "matched", "severity": "none", "review": false, "name": "GAMOSSAPARO"}}, {"type": "Feature", "geometry": {"type": "Point", "coordinates": [78.1166916, 9.9226331]}, "properties": {"id": "ms_9.922633_78.116692", "kind": "building", "street": "Vadakku Masi Veethi", "use": null, "floors": null, "match_status": "matched", "severity": "none", "review": false, "name": null}}, {"type": "Feature", "geometry": {"type": "Point", "coordinates": [78.1176474, 9.9231453]}, "properties": {"id": "ms_9.923145_78.117647", "kind": "building", "street": "Vadakku Masi Veethi", "use": "commercial", "floors": 2, "match_status": "matched", "severity": "none", "review": false, "name": "kamakshiha doors"}}, {"type": "Feature", "geometry": {"type": "Point", "coordinates": [78.1178136, 9.9226501]}, "properties": {"id": "ms_9.922650_78.117814", "kind": "building", "street": "Vadakku Masi Veethi", "use": "commercial", "floors": 3, "match_status": "matched", "severity": "none", "review": false, "name": "gokul kidz nursery & primary school"}}, {"type": "Feature", "geometry": {"type": "Point", "coordinates": [78.1175211, 9.9231679]}, "properties": {"id": "ms_9.923168_78.117521", "kind": "building", "street": "Vadakku Masi Veethi", "use": "mixed", "floors": 2, "match_status": "matched", "severity": "none", "review": false, "name": "SURYA"}}, {"type": "Feature", "geometry": {"type": "Point", "coordinates": [78.1185572, 9.9227853]}, "properties": {"id": "ms_9.922785_78.118557", "kind": "building", "street": "Vadakku Masi Veethi", "use": "commercial", "floors": 3, "match_status": "no_record", "severity": "high", "review": true, "name": "microtex"}}, {"type": "Feature", "geometry": {"type": "Point", "coordinates": [78.1174478, 9.9226514]}, "properties": {"id": "ms_9.922651_78.117448", "kind": "building", "street": "Vadakku Masi Veethi", "use": "commercial", "floors": 2, "match_status": "matched", "severity": "none", "review": false, "name": null}}, {"type": "Feature", "geometry": {"type": "Point", "coordinates": [78.1155701, 9.9230947]}, "properties": {"id": "ms_9.923095_78.115570", "kind": "building", "street": "Vadakku Masi Veethi", "use": "commercial", "floors": 3, "match_status": "matched", "severity": "none", "review": false, "name": "nisha"}}, {"type": "Feature", "geometry": {"type": "Point", "coordinates": [78.115842, 9.9226661]}, "properties": {"id": "ms_9.922666_78.115842", "kind": "building", "street": "Vadakku Masi Veethi", "use": "commercial", "floors": 2, "match_status": "matched", "severity": "none", "review": false, "name": null}}, {"type": "Feature", "geometry": {"type": "Point", "coordinates": [78.1168658, 9.9226943]}, "properties": {"id": "ms_9.922694_78.116866", "kind": "building", "street": "Vadakku Masi Veethi", "use": "commercial", "floors": 2, "match_status": "matched", "severity": "none", "review": false, "name": null}}, {"type": "Feature", "geometry": {"type": "Point", "coordinates": [78.1179571, 9.9227212]}, "properties": {"id": "ms_9.922721_78.117957", "kind": "building", "street": "Vadakku Masi Veethi", "use": "commercial", "floors": 3, "match_status": "matched", "severity": "none", "review": false, "name": "sri vari physiotherapy clinic"}}, {"type": "Feature", "geometry": {"type": "Point", "coordinates": [78.1152914, 9.9232866]}, "properties": {"id": "ms_9.923287_78.115291", "kind": "building", "street": "Vadakku Masi Veethi", "use": "mixed", "floors": 2, "match_status": "matched", "severity": "none", "review": false, "name": "gowree"}}, {"type": "Feature", "geometry": {"type": "Point", "coordinates": [78.1164539, 9.9226456]}, "properties": {"id": "ms_9.922646_78.116454", "kind": "building", "street": "Vadakku Masi Veethi", "use": "residential", "floors": 3, "match_status": "discrepancy", "severity": "medium", "review": true, "name": null}}, {"type": "Feature", "geometry": {"type": "Point", "coordinates": [78.1180516, 9.9227558]}, "properties": {"id": "ms_9.922756_78.118052", "kind": "building", "street": "Vadakku Masi Veethi", "use": "commercial", "floors": 2, "match_status": "matched", "severity": "none", "review": false, "name": null}}, {"type": "Feature", "geometry": {"type": "Point", "coordinates": [78.1158573, 9.9231283]}, "properties": {"id": "ms_9.923128_78.115857", "kind": "building", "street": "Vadakku Masi Veethi", "use": "residential", "floors": 3, "match_status": "matched", "severity": "none", "review": true, "name": null}}, {"type": "Feature", "geometry": {"type": "Point", "coordinates": [78.1171741, 9.9227074]}, "properties": {"id": "ms_9.922707_78.117174", "kind": "building", "street": "Vadakku Masi Veethi", "use": "commercial", "floors": 3, "match_status": "matched", "severity": "none", "review": false, "name": "Mahati Computer"}}, {"type": "Feature", "geometry": {"type": "Point", "coordinates": [78.1185699, 9.9231404]}, "properties": {"id": "ms_9.923140_78.118570", "kind": "building", "street": "Vadakku Masi Veethi", "use": "commercial", "floors": null, "match_status": "matched", "severity": "none", "review": false, "name": "dharmaiyar sriram pipes"}}, {"type": "Feature", "geometry": {"type": "Point", "coordinates": [78.1182129, 9.9230878]}, "properties": {"id": "ms_9.923088_78.118213", "kind": "building", "street": "Vadakku Masi Veethi", "use": "commercial", "floors": null, "match_status": "matched", "severity": "none", "review": false, "name": "SHANMUCAT"}}, {"type": "Feature", "geometry": {"type": "Point", "coordinates": [78.1162662, 9.9230344]}, "properties": {"id": "ms_9.923034_78.116266", "kind": "building", "street": "Vadakku Masi Veethi", "use": "residential", "floors": 2, "match_status": "no_record", "severity": "high", "review": true, "name": null}}, {"type": "Feature", "geometry": {"type": "Point", "coordinates": [78.1160242, 9.9227592]}, "properties": {"id": "ms_9.922759_78.116024", "kind": "building", "street": "Vadakku Masi Veethi", "use": "commercial", "floors": 2, "match_status": "matched", "severity": "none", "review": false, "name": "Vinayaga Glass Company"}}, {"type": "Feature", "geometry": {"type": "Point", "coordinates": [78.1156949, 9.9227826]}, "properties": {"id": "ms_9.922783_78.115695", "kind": "building", "street": "Vadakku Masi Veethi", "use": "commercial", "floors": null, "match_status": "matched", "severity": "none", "review": false, "name": "Sri Meenak"}}, {"type": "Feature", "geometry": {"type": "Point", "coordinates": [78.1181687, 9.9228292]}, "properties": {"id": "ms_9.922829_78.118169", "kind": "building", "street": "Vadakku Masi Veethi", "use": "commercial", "floors": 3, "match_status": "matched", "severity": "none", "review": false, "name": "ss travel"}}, {"type": "Feature", "geometry": {"type": "Point", "coordinates": [78.116579, 9.9227443]}, "properties": {"id": "ms_9.922744_78.116579", "kind": "building", "street": "Vadakku Masi Veethi", "use": "commercial", "floors": 3, "match_status": "matched", "severity": "none", "review": false, "name": "MuthootFinance"}}, {"type": "Feature", "geometry": {"type": "Point", "coordinates": [78.1183922, 9.9228499]}, "properties": {"id": "ms_9.922850_78.118392", "kind": "building", "street": "Vadakku Masi Veethi", "use": "commercial", "floors": 1, "match_status": "no_record", "severity": "high", "review": true, "name": null}}, {"type": "Feature", "geometry": {"type": "Point", "coordinates": [78.1180316, 9.923048]}, "properties": {"id": "ms_9.923048_78.118032", "kind": "building", "street": "Vadakku Masi Veethi", "use": null, "floors": null, "match_status": "matched", "severity": "none", "review": false, "name": null}}, {"type": "Feature", "geometry": {"type": "Point", "coordinates": [78.1159339, 9.9230275]}, "properties": {"id": "ms_9.923028_78.115934", "kind": "building", "street": "Vadakku Masi Veethi", "use": "mixed", "floors": 2, "match_status": "matched", "severity": "none", "review": true, "name": null}}, {"type": "Feature", "geometry": {"type": "Point", "coordinates": [78.1175069, 9.9227692]}, "properties": {"id": "ms_9.922769_78.117507", "kind": "building", "street": "Vadakku Masi Veethi", "use": "residential", "floors": 3, "match_status": "no_record", "severity": "high", "review": true, "name": "soumili"}}, {"type": "Feature", "geometry": {"type": "Point", "coordinates": [78.1169652, 9.9230594]}, "properties": {"id": "ms_9.923059_78.116965", "kind": "building", "street": "Vadakku Masi Veethi", "use": "commercial", "floors": 2, "match_status": "discrepancy", "severity": "high", "review": true, "name": null}}, {"type": "Feature", "geometry": {"type": "Point", "coordinates": [78.1175989, 9.9227742]}, "properties": {"id": "ms_9.922774_78.117599", "kind": "building", "street": "Vadakku Masi Veethi", "use": "commercial", "floors": 1, "match_status": "matched", "severity": "none", "review": false, "name": null}}, {"type": "Feature", "geometry": {"type": "Point", "coordinates": [78.1166082, 9.9230252]}, "properties": {"id": "ms_9.923025_78.116608", "kind": "building", "street": "Vadakku Masi Veethi", "use": "commercial", "floors": null, "match_status": "discrepancy", "severity": "medium", "review": true, "name": "Fancy Fitting  Modular"}}, {"type": "Feature", "geometry": {"type": "Point", "coordinates": [78.1181163, 9.9230827]}, "properties": {"id": "ms_9.923083_78.118116", "kind": "building", "street": "Vadakku Masi Veethi", "use": "commercial", "floors": 2, "match_status": "matched", "severity": "none", "review": true, "name": "Vivay"}}, {"type": "Feature", "geometry": {"type": "Point", "coordinates": [78.115392, 9.9231013]}, "properties": {"id": "ms_9.923101_78.115392", "kind": "building", "street": "Vadakku Masi Veethi", "use": "commercial", "floors": 2, "match_status": "matched", "severity": "none", "review": false, "name": null}}, {"type": "Feature", "geometry": {"type": "Point", "coordinates": [78.1176946, 9.9227803]}, "properties": {"id": "ms_9.922780_78.117695", "kind": "building", "street": "Vadakku Masi Veethi", "use": "residential", "floors": 4, "match_status": "matched", "severity": "none", "review": false, "name": "maya lifes"}}, {"type": "Feature", "geometry": {"type": "Point", "coordinates": [78.1178643, 9.9227977]}, "properties": {"id": "ms_9.922798_78.117864", "kind": "building", "street": "Vadakku Masi Veethi", "use": "commercial", "floors": 2, "match_status": "matched", "severity": "none", "review": false, "name": "office"}}, {"type": "Feature", "geometry": {"type": "Point", "coordinates": [78.1154426, 9.9232901]}, "properties": {"id": "ms_9.923290_78.115443", "kind": "building", "street": "Vadakku Masi Veethi", "use": null, "floors": null, "match_status": "matched", "severity": "none", "review": false, "name": null}}, {"type": "Feature", "geometry": {"type": "Point", "coordinates": [78.1157488, 9.9230306]}, "properties": {"id": "ms_9.923031_78.115749", "kind": "building", "street": "Vadakku Masi Veethi", "use": "commercial", "floors": 3, "match_status": "matched", "severity": "none", "review": false, "name": null}}, {"type": "Feature", "geometry": {"type": "Point", "coordinates": [78.1182841, 9.9228459]}, "properties": {"id": "ms_9.922846_78.118284", "kind": "building", "street": "Vadakku Masi Veethi", "use": "commercial", "floors": null, "match_status": "matched", "severity": "none", "review": false, "name": "CITY CERAMICS"}}, {"type": "Feature", "geometry": {"type": "Point", "coordinates": [78.1182972, 9.9231125]}, "properties": {"id": "ms_9.923113_78.118297", "kind": "building", "street": "Vadakku Masi Veethi", "use": "residential", "floors": 3, "match_status": "discrepancy", "severity": "medium", "review": true, "name": null}}, {"type": "Feature", "geometry": {"type": "Point", "coordinates": [78.1161136, 9.922744]}, "properties": {"id": "ms_9.922744_78.116114", "kind": "building", "street": "Vadakku Masi Veethi", "use": "commercial", "floors": 2, "match_status": "matched", "severity": "none", "review": false, "name": "RETNCEO"}}, {"type": "Feature", "geometry": {"type": "Point", "coordinates": [78.1185067, 9.9230849]}, "properties": {"id": "ms_9.923085_78.118507", "kind": "building", "street": "Vadakku Masi Veethi", "use": null, "floors": null, "match_status": "matched", "severity": "none", "review": false, "name": null}}, {"type": "Feature", "geometry": {"type": "Point", "coordinates": [78.1175891, 9.9228511]}, "properties": {"id": "asset-0000", "kind": "pole", "confidence": "medium", "street": "Vadakku Masi Veethi", "uncertainty_m": 5.0, "register_status": "discrepancy"}}, {"type": "Feature", "geometry": {"type": "Point", "coordinates": [78.1162975, 9.9229696]}, "properties": {"id": "asset-0001", "kind": "pole", "confidence": "low", "street": "Vadakku Masi Veethi", "uncertainty_m": 5.0, "register_status": "unconfirmed_detection"}}, {"type": "Feature", "geometry": {"type": "Point", "coordinates": [78.1180928, 9.923002]}, "properties": {"id": "asset-0002", "kind": "pole", "confidence": "medium", "street": "Vadakku Masi Veethi", "uncertainty_m": 5.0, "register_status": "discrepancy"}}, {"type": "Feature", "geometry": {"type": "Point", "coordinates": [78.1161624, 9.9229583]}, "properties": {"id": "asset-0003", "kind": "pole", "confidence": "medium", "street": "Vadakku Masi Veethi", "uncertainty_m": 2.6, "register_status": "matched"}}, {"type": "Feature", "geometry": {"type": "Point", "coordinates": [78.1174841, 9.9229629]}, "properties": {"id": "asset-0004", "kind": "pole", "confidence": "high", "street": "Vadakku Masi Veethi", "uncertainty_m": 0.5, "register_status": "discrepancy"}}, {"type": "Feature", "geometry": {"type": "Point", "coordinates": [78.1186478, 9.9230551]}, "properties": {"id": "asset-0005", "kind": "pole", "confidence": "low", "street": "Vadakku Masi Veethi", "uncertainty_m": 5.0, "register_status": "unconfirmed_detection"}}, {"type": "Feature", "geometry": {"type": "Point", "coordinates": [78.1160088, 9.9228327]}, "properties": {"id": "asset-0006", "kind": "pole", "confidence": "medium", "street": "Vadakku Masi Veethi", "uncertainty_m": 5.0, "register_status": "unrecorded_asset"}}, {"type": "Feature", "geometry": {"type": "Point", "coordinates": [78.1183573, 9.9230177]}, "properties": {"id": "asset-0007", "kind": "pole", "confidence": "medium", "street": "Vadakku Masi Veethi", "uncertainty_m": 2.6, "register_status": "matched"}}, {"type": "Feature", "geometry": {"type": "Point", "coordinates": [78.1182383, 9.9228763]}, "properties": {"id": "asset-0008", "kind": "pole", "confidence": "medium", "street": "Vadakku Masi Veethi", "uncertainty_m": 5.0, "register_status": "unrecorded_asset"}}, {"type": "Feature", "geometry": {"type": "Point", "coordinates": [78.1183851, 9.9229078]}, "properties": {"id": "asset-0009", "kind": "pole", "confidence": "medium", "street": "Vadakku Masi Veethi", "uncertainty_m": 2.6, "register_status": "matched"}}, {"type": "Feature", "geometry": {"type": "Point", "coordinates": [78.115167, 9.9228789]}, "properties": {"id": "asset-0010", "kind": "pole", "confidence": "low", "street": "Vadakku Masi Veethi", "uncertainty_m": 5.0, "register_status": "unconfirmed_detection"}}, {"type": "Feature", "geometry": {"type": "Point", "coordinates": [78.1181672, 9.9230071]}, "properties": {"id": "asset-0011", "kind": "pole", "confidence": "low", "street": "Vadakku Masi Veethi", "uncertainty_m": 2.6, "register_status": "unconfirmed_detection"}}, {"type": "Feature", "geometry": {"type": "Point", "coordinates": [78.1158136, 9.9226853]}, "properties": {"id": "asset-0012", "kind": "pole", "confidence": "low", "street": "Vadakku Masi Veethi", "uncertainty_m": 5.0, "register_status": "unconfirmed_detection"}}, {"type": "Feature", "geometry": {"type": "Point", "coordinates": [78.1161353, 9.9227991]}, "properties": {"id": "asset-0013", "kind": "pole", "confidence": "low", "street": "Vadakku Masi Veethi", "uncertainty_m": 5.0, "register_status": "unconfirmed_detection"}}, {"type": "Feature", "geometry": {"type": "Point", "coordinates": [78.1159334, 9.9230143]}, "properties": {"id": "asset-0014", "kind": "streetlight", "confidence": "medium", "street": "Vadakku Masi Veethi", "uncertainty_m": 5.0, "register_status": "unrecorded_asset"}}, {"type": "Feature", "geometry": {"type": "Point", "coordinates": [78.1174047, 9.9228148]}, "properties": {"id": "asset-0015", "kind": "pole", "confidence": "medium", "street": "Vadakku Masi Veethi", "uncertainty_m": 5.0, "register_status": "discrepancy"}}, {"type": "Feature", "geometry": {"type": "Point", "coordinates": [78.1161016, 9.9229628]}, "properties": {"id": "asset-0016", "kind": "pole", "confidence": "low", "street": "Vadakku Masi Veethi", "uncertainty_m": 5.0, "register_status": "unconfirmed_detection"}}, {"type": "Feature", "geometry": {"type": "Point", "coordinates": [78.116756, 9.922946]}, "properties": {"id": "asset-0017", "kind": "pole", "confidence": "low", "street": "Vadakku Masi Veethi", "uncertainty_m": 2.6, "register_status": "unconfirmed_detection"}}, {"type": "Feature", "geometry": {"type": "Point", "coordinates": [78.1158311, 9.9227482]}, "properties": {"id": "asset-0018", "kind": "pole", "confidence": "low", "street": "Vadakku Masi Veethi", "uncertainty_m": 2.6, "register_status": "unconfirmed_detection"}}, {"type": "Feature", "geometry": {"type": "Point", "coordinates": [78.1174201, 9.9229592]}, "properties": {"id": "asset-0019", "kind": "pole", "confidence": "medium", "street": "Vadakku Masi Veethi", "uncertainty_m": 2.6, "register_status": "matched"}}, {"type": "Feature", "geometry": {"type": "Point", "coordinates": [78.1176693, 9.9229761]}, "properties": {"id": "asset-0020", "kind": "pole", "confidence": "low", "street": "Vadakku Masi Veethi", "uncertainty_m": 5.0, "register_status": "unconfirmed_detection"}}, {"type": "Feature", "geometry": {"type": "Point", "coordinates": [78.1167979, 9.9228017]}, "properties": {"id": "asset-0021", "kind": "pole", "confidence": "low", "street": "Vadakku Masi Veethi", "uncertainty_m": 5.0, "register_status": "unconfirmed_detection"}}, {"type": "Feature", "geometry": {"type": "Point", "coordinates": [78.1177916, 9.9229887]}, "properties": {"id": "asset-0022", "kind": "pole", "confidence": "low", "street": "Vadakku Masi Veethi", "uncertainty_m": 2.6, "register_status": "unconfirmed_detection"}}, {"type": "Feature", "geometry": {"type": "Point", "coordinates": [78.1156193, 9.9230075]}, "properties": {"id": "asset-0023", "kind": "pole", "confidence": "low", "street": "Vadakku Masi Veethi", "uncertainty_m": 2.6, "register_status": "unconfirmed_detection"}}, {"type": "Feature", "geometry": {"type": "Point", "coordinates": [78.1157862, 9.9228853]}, "properties": {"id": "asset-0024", "kind": "pole", "confidence": "medium", "street": "Vadakku Masi Veethi", "uncertainty_m": 5.0, "register_status": "matched"}}, {"type": "Feature", "geometry": {"type": "Point", "coordinates": [78.1183251, 9.9230671]}, "properties": {"id": "asset-0025", "kind": "pole", "confidence": "low", "street": "Vadakku Masi Veethi", "uncertainty_m": 5.0, "register_status": "unconfirmed_detection"}}, {"type": "Feature", "geometry": {"type": "Point", "coordinates": [78.1158425, 9.9228701]}, "properties": {"id": "asset-0026", "kind": "pole", "confidence": "medium", "street": "Vadakku Masi Veethi", "uncertainty_m": 5.0, "register_status": "discrepancy"}}, {"type": "Feature", "geometry": {"type": "Point", "coordinates": [78.1164963, 9.9229562]}, "properties": {"id": "asset-0027", "kind": "pole", "confidence": "medium", "street": "Vadakku Masi Veethi", "uncertainty_m": 5.0, "register_status": "matched"}}, {"type": "Feature", "geometry": {"type": "Point", "coordinates": [78.1185459, 9.9229255]}, "properties": {"id": "asset-0028", "kind": "pole", "confidence": "medium", "street": "Vadakku Masi Veethi", "uncertainty_m": 5.0, "register_status": "matched"}}, {"type": "Feature", "geometry": {"type": "Point", "coordinates": [78.1184522, 9.9230146]}, "properties": {"id": "asset-0029", "kind": "pole", "confidence": "high", "street": "Vadakku Masi Veethi", "uncertainty_m": 0.5, "register_status": "matched"}}, {"type": "Feature", "geometry": {"type": "LineString", "coordinates": [[78.11507424320702, 9.922891510554292], [78.1156357779884, 9.922954609545041]]}, "properties": {"id": "gap60-000", "kind": "streetlight_gap", "street": "Vadakku Masi Veethi", "length_m": 74, "gap_type": "poles present, no lamp detected"}}, {"type": "Feature", "geometry": {"type": "LineString", "coordinates": [[78.11619487328393, 9.922914711824312], [78.11856549166409, 9.922997458011713]]}, "properties": {"id": "gap60-001", "kind": "streetlight_gap", "street": "Vadakku Masi Veethi", "length_m": 272, "gap_type": "poles present, no lamp detected"}}, {"type": "Feature", "geometry": {"type": "Point", "coordinates": [78.1156419, 9.9228463]}, "properties": {"id": "ub-0000", "kind": "unmapped_business", "name": "havells gallery", "street": "Vadakku Masi Veethi", "approximate": true}}, {"type": "Feature", "geometry": {"type": "Point", "coordinates": [78.1155601, 9.9228762]}, "properties": {"id": "ub-0001", "kind": "unmapped_business", "name": "krishnaven associates", "street": "Vadakku Masi Veethi", "approximate": true}}, {"type": "Feature", "geometry": {"type": "Point", "coordinates": [78.115553, 9.9228155]}, "properties": {"id": "ub-0002", "kind": "unmapped_business", "name": "finflex press", "street": "Vadakku Masi Veethi", "approximate": true}}, {"type": "Feature", "geometry": {"type": "Point", "coordinates": [78.1154558, 9.9228595]}, "properties": {"id": "ub-0003", "kind": "unmapped_business", "name": "hotel milagu", "street": "Vadakku Masi Veethi", "approximate": true}}]}