{"type": "FeatureCollection", "features": [{"type": "Feature", "geometry": {"type": "Point", "coordinates": [76.9694048, 11.0468482]}, "properties": {"id": "ms_11.046848_76.969405", "kind": "building", "street": "Sankara Linganar Street", "use": "industrial", "floors": 1, "match_status": "matched", "severity": "none", "review": false, "name": "national hardwares"}}, {"type": "Feature", "geometry": {"type": "Point", "coordinates": [76.9696386, 11.0456251]}, "properties": {"id": "w1251628086", "kind": "building", "street": "Sankara Linganar Street", "use": "residential", "floors": 2, "match_status": "matched", "severity": "none", "review": false, "name": null}}, {"type": "Feature", "geometry": {"type": "Point", "coordinates": [76.9689612, 11.0473089]}, "properties": {"id": "ms_11.047309_76.968961", "kind": "building", "street": "Sankara Linganar Street", "use": null, "floors": null, "match_status": "matched", "severity": "none", "review": false, "name": null}}, {"type": "Feature", "geometry": {"type": "Point", "coordinates": [76.9691634, 11.0479216]}, "properties": {"id": "ms_11.047922_76.969163", "kind": "building", "street": "Sankara Linganar Street", "use": "commercial", "floors": 1, "match_status": "matched", "severity": "none", "review": false, "name": null}}, {"type": "Feature", "geometry": {"type": "Point", "coordinates": [76.9696351, 11.0453717]}, "properties": {"id": "w1251627349", "kind": "building", "street": "Sankara Linganar Street", "use": "residential", "floors": 2, "match_status": "matched", "severity": "none", "review": false, "name": null}}, {"type": "Feature", "geometry": {"type": "Point", "coordinates": [76.9693006, 11.0474012]}, "properties": {"id": "ms_11.047401_76.969301", "kind": "building", "street": "Sankara Linganar Street", "use": "residential", "floors": 1, "match_status": "matched", "severity": "none", "review": false, "name": null}}, {"type": "Feature", "geometry": {"type": "Point", "coordinates": [76.9693061, 11.0475641]}, "properties": {"id": "ms_11.047564_76.969306", "kind": "building", "street": "Sankara Linganar Street", "use": "commercial", "floors": 1, "match_status": "no_record", "severity": "high", "review": true, "name": "kk odaam"}}, {"type": "Feature", "geometry": {"type": "Point", "coordinates": [76.9694143, 11.0478197]}, "properties": {"id": "ms_11.047820_76.969414", "kind": "building", "street": "Sankara Linganar Street", "use": null, "floors": null, "match_status": "matched", "severity": "none", "review": false, "name": null}}, {"type": "Feature", "geometry": {"type": "Point", "coordinates": [76.9693036, 11.0472383]}, "properties": {"id": "ms_11.047238_76.969304", "kind": "building", "street": "Sankara Linganar Street", "use": "other", "floors": 1, "match_status": "matched", "severity": "none", "review": false, "name": null}}, {"type": "Feature", "geometry": {"type": "Point", "coordinates": [76.9690295, 11.0476605]}, "properties": {"id": "ms_11.047661_76.969030", "kind": "building", "street": "Sankara Linganar Street", "use": null, "floors": null, "match_status": "matched", "severity": "none", "review": false, "name": null}}, {"type": "Feature", "geometry": {"type": "Point", "coordinates": [76.9691673, 11.0473223]}, "properties": {"id": "asset-0000", "kind": "pole", "confidence": "low", "street": "Sankara Linganar Street", "uncertainty_m": 5.0, "register_status": "unconfirmed_detection"}}, {"type": "Feature", "geometry": {"type": "Point", "coordinates": [76.9691699, 11.0475798]}, "properties": {"id": "asset-0001", "kind": "pole", "confidence": "low", "street": "Sankara Linganar Street", "uncertainty_m": 2.4, "register_status": "unconfirmed_detection"}}, {"type": "Feature", "geometry": {"type": "Point", "coordinates": [76.9694869, 11.045522]}, "properties": {"id": "asset-0002", "kind": "pole", "confidence": "low", "street": "Sankara Linganar Street", "uncertainty_m": 5.0, "register_status": "unconfirmed_detection"}}, {"type": "Feature", "geometry": {"type": "Point", "coordinates": [76.9694792, 11.0454493]}, "properties": {"id": "asset-0003", "kind": "pole", "confidence": "high", "street": "Sankara Linganar Street", "uncertainty_m": 0.5, "register_status": "discrepancy"}}, {"type": "Feature", "geometry": {"type": "LineString", "coordinates": [[76.96910534923182, 11.04776292942742], [76.9694457042119, 11.04541819966484]]}, "properties": {"id": "gap60-000", "kind": "streetlight_gap", "street": "Sankara Linganar Street", "length_m": 274, "gap_type": "poles present, no lamp detected"}}]}