{"type": "FeatureCollection", "features": [{"type": "Feature", "geometry": {"type": "Point", "coordinates": [76.9844805, 11.0371567]}, "properties": {"id": "w1236977988", "kind": "building", "street": "Kattabomman Street", "use": null, "floors": null, "match_status": "matched", "severity": "none", "review": false, "name": null}}, {"type": "Feature", "geometry": {"type": "Point", "coordinates": [76.9848807, 11.0374705]}, "properties": {"id": "w1236978785", "kind": "building", "street": "Kattabomman Street", "use": "residential", "floors": 2, "match_status": "matched", "severity": "none", "review": false, "name": null}}, {"type": "Feature", "geometry": {"type": "Point", "coordinates": [76.9848729, 11.0372347]}, "properties": {"id": "w1236978403", "kind": "building", "street": "Kattabomman Street", "use": "residential", "floors": 2, "match_status": "discrepancy", "severity": "medium", "review": true, "name": "lush green park"}}, {"type": "Feature", "geometry": {"type": "Point", "coordinates": [76.9846947, 11.0372015]}, "properties": {"id": "w1236978355", "kind": "building", "street": "Kattabomman Street", "use": null, "floors": null, "match_status": "matched", "severity": "none", "review": false, "name": null}}, {"type": "Feature", "geometry": {"type": "Point", "coordinates": [76.9845019, 11.037394]}, "properties": {"id": "w1236978418", "kind": "building", "street": "Kattabomman Street", "use": "residential", "floors": 2, "match_status": "no_record", "severity": "high", "review": true, "name": null}}, {"type": "Feature", "geometry": {"type": "Point", "coordinates": [76.9848006, 11.0376155]}, "properties": {"id": "w1236977922", "kind": "building", "street": "Kattabomman Street", "use": null, "floors": null, "match_status": "matched", "severity": "none", "review": false, "name": null}}, {"type": "Feature", "geometry": {"type": "Point", "coordinates": [76.9845966, 11.0375813]}, "properties": {"id": "w1236978503", "kind": "building", "street": "Kattabomman Street", "use": null, "floors": null, "match_status": "matched", "severity": "none", "review": false, "name": null}}, {"type": "Feature", "geometry": {"type": "Point", "coordinates": [76.984606, 11.0374081]}, "properties": {"id": "w1236978204", "kind": "building", "street": "Kattabomman Street", "use": "residential", "floors": 2, "match_status": "matched", "severity": "none", "review": false, "name": null}}, {"type": "Feature", "geometry": {"type": "Point", "coordinates": [76.9842483, 11.037339]}, "properties": {"id": "asset-0000", "kind": "streetlight", "confidence": "low", "street": "Kattabomman Street", "uncertainty_m": 5.0, "register_status": "unconfirmed_detection"}}, {"type": "Feature", "geometry": {"type": "Point", "coordinates": [76.9849279, 11.0373627]}, "properties": {"id": "asset-0001", "kind": "pole", "confidence": "low", "street": "Kattabomman Street", "uncertainty_m": 2.4, "register_status": "unconfirmed_detection"}}, {"type": "Feature", "geometry": {"type": "Point", "coordinates": [76.9848186, 11.0372777]}, "properties": {"id": "asset-0002", "kind": "pole", "confidence": "low", "street": "Kattabomman Street", "uncertainty_m": 5.0, "register_status": "unconfirmed_detection"}}, {"type": "Feature", "geometry": {"type": "Point", "coordinates": [76.9842674, 11.0372572]}, "properties": {"id": "asset-0003", "kind": "pole", "confidence": "low", "street": "Kattabomman Street", "uncertainty_m": 2.4, "register_status": "unconfirmed_detection"}}, {"type": "Feature", "geometry": {"type": "Point", "coordinates": [76.9845066, 11.0373333]}, "properties": {"id": "asset-0004", "kind": "pole", "confidence": "low", "street": "Kattabomman Street", "uncertainty_m": 2.4, "register_status": "unconfirmed_detection"}}, {"type": "Feature", "geometry": {"type": "Point", "coordinates": [76.9845859, 11.0371989]}, "properties": {"id": "asset-0005", "kind": "pole", "confidence": "low", "street": "Kattabomman Street", "uncertainty_m": 5.0, "register_status": "unconfirmed_detection"}}, {"type": "Feature", "geometry": {"type": "Point", "coordinates": [76.9848307, 11.0373348]}, "properties": {"id": "asset-0006", "kind": "pole", "confidence": "high", "street": "Kattabomman Street", "uncertainty_m": 0.5, "register_status": "discrepancy"}}, {"type": "Feature", "geometry": {"type": "LineString", "coordinates": [[76.98467139780264, 11.03733151079971], [76.9858616928545, 11.03753595947063]]}, "properties": {"id": "gap60-000", "kind": "streetlight_gap", "street": "Kattabomman Street", "length_m": 144, "gap_type": "poles present, no lamp detected"}}]}