{"type": "FeatureCollection", "features": [{"type": "Feature", "geometry": {"type": "Point", "coordinates": [76.9704088, 11.0344027]}, "properties": {"id": "w1251630693", "kind": "building", "street": "Sanganur Road", "use": "other", "floors": 1, "match_status": "matched", "severity": "none", "review": false, "name": "YOURNBSAXKESTC ACAD"}}, {"type": "Feature", "geometry": {"type": "Point", "coordinates": [76.9682643, 11.0342183]}, "properties": {"id": "w1251631013", "kind": "building", "street": "Sanganur Road", "use": "commercial", "floors": 2, "match_status": "matched", "severity": "none", "review": true, "name": "Rockwell"}}, {"type": "Feature", "geometry": {"type": "Point", "coordinates": [76.9680328, 11.0341395]}, "properties": {"id": "w1251631044", "kind": "building", "street": "Sanganur Road", "use": "commercial", "floors": 1, "match_status": "matched", "severity": "none", "review": false, "name": null}}, {"type": "Feature", "geometry": {"type": "Point", "coordinates": [76.9712458, 11.0351894]}, "properties": {"id": "w1251629310", "kind": "building", "street": "Sanganur Road", "use": "commercial", "floors": 1, "match_status": "no_record", "severity": "high", "review": true, "name": "CITY GLASS PALACE"}}, {"type": "Feature", "geometry": {"type": "Point", "coordinates": [76.971261, 11.0345555]}, "properties": {"id": "w1251630846", "kind": "building", "street": "Sanganur Road", "use": "institutional", "floors": 2, "match_status": "matched", "severity": "none", "review": false, "name": null}}, {"type": "Feature", "geometry": {"type": "Point", "coordinates": [76.9710282, 11.0351871]}, "properties": {"id": "w1251630101", "kind": "building", "street": "Sanganur Road", "use": "commercial", "floors": 2, "match_status": "matched", "severity": "none", "review": false, "name": null}}, {"type": "Feature", "geometry": {"type": "Point", "coordinates": [76.9694796, 11.0347644]}, "properties": {"id": "w1251630716", "kind": "building", "street": "Sanganur Road", "use": "residential", "floors": 1, "match_status": "matched", "severity": "none", "review": false, "name": "sri lakshmi"}}, {"type": "Feature", "geometry": {"type": "Point", "coordinates": [76.9689365, 11.0343794]}, "properties": {"id": "w1251631008", "kind": "building", "street": "Sanganur Road", "use": "commercial", "floors": 2, "match_status": "matched", "severity": "none", "review": false, "name": "royal"}}, {"type": "Feature", "geometry": {"type": "Point", "coordinates": [76.9691762, 11.0344656]}, "properties": {"id": "w1251631160", "kind": "building", "street": "Sanganur Road", "use": "commercial", "floors": 2, "match_status": "matched", "severity": "none", "review": false, "name": null}}, {"type": "Feature", "geometry": {"type": "Point", "coordinates": [76.9684671, 11.0347128]}, "properties": {"id": "w1251630651", "kind": "building", "street": "Sanganur Road", "use": "commercial", "floors": 1, "match_status": "matched", "severity": "none", "review": false, "name": "acura"}}, {"type": "Feature", "geometry": {"type": "Point", "coordinates": [76.9699491, 11.0345582]}, "properties": {"id": "w1251630943", "kind": "building", "street": "Sanganur Road", "use": "other", "floors": 1, "match_status": "matched", "severity": "none", "review": false, "name": "SRIANGALAPARAMESHI"}}, {"type": "Feature", "geometry": {"type": "Point", "coordinates": [76.971137, 11.0347474]}, "properties": {"id": "w1251630691", "kind": "building", "street": "Sanganur Road", "use": "residential", "floors": 1, "match_status": "matched", "severity": "none", "review": false, "name": null}}, {"type": "Feature", "geometry": {"type": "Point", "coordinates": [76.9708068, 11.0346517]}, "properties": {"id": "w1251630932", "kind": "building", "street": "Sanganur Road", "use": "commercial", "floors": 2, "match_status": "matched", "severity": "none", "review": false, "name": "VIN NET CORNER"}}, {"type": "Feature", "geometry": {"type": "Point", "coordinates": [76.9698206, 11.0345397]}, "properties": {"id": "w1251630761", "kind": "building", "street": "Sanganur Road", "use": "commercial", "floors": 1, "match_status": "matched", "severity": "none", "review": false, "name": "needome"}}, {"type": "Feature", "geometry": {"type": "Point", "coordinates": [76.9685154, 11.0343829]}, "properties": {"id": "w1251630455", "kind": "building", "street": "Sanganur Road", "use": "commercial", "floors": 3, "match_status": "matched", "severity": "none", "review": false, "name": null}}, {"type": "Feature", "geometry": {"type": "Point", "coordinates": [76.9693673, 11.0344677]}, "properties": {"id": "w1251631009", "kind": "building", "street": "Sanganur Road", "use": "commercial", "floors": 1, "match_status": "discrepancy", "severity": "medium", "review": false, "name": null}}, {"type": "Feature", "geometry": {"type": "Point", "coordinates": [76.9702225, 11.0349607]}, "properties": {"id": "w1251629139", "kind": "building", "street": "Sanganur Road", "use": "commercial", "floors": 3, "match_status": "matched", "severity": "none", "review": false, "name": "Signature"}}, {"type": "Feature", "geometry": {"type": "Point", "coordinates": [76.9707089, 11.0346273]}, "properties": {"id": "w1251631058", "kind": "building", "street": "Sanganur Road", "use": null, "floors": null, "match_status": "matched", "severity": "none", "review": false, "name": "everon"}}, {"type": "Feature", "geometry": {"type": "Point", "coordinates": [76.9700979, 11.0349103]}, "properties": {"id": "w1251629813", "kind": "building", "street": "Sanganur Road", "use": "residential", "floors": 1, "match_status": "matched", "severity": "none", "review": false, "name": null}}, {"type": "Feature", "geometry": {"type": "Point", "coordinates": [76.9686825, 11.0343598]}, "properties": {"id": "w1251631093", "kind": "building", "street": "Sanganur Road", "use": null, "floors": null, "match_status": "matched", "severity": "none", "review": false, "name": null}}, {"type": "Feature", "geometry": {"type": "Point", "coordinates": [76.9705883, 11.0350364]}, "properties": {"id": "w1251630041", "kind": "building", "street": "Sanganur Road", "use": "commercial", "floors": 1, "match_status": "matched", "severity": "none", "review": false, "name": "Nanajah Finance"}}, {"type": "Feature", "geometry": {"type": "Point", "coordinates": [76.9696424, 11.0348275]}, "properties": {"id": "w1251630804", "kind": "building", "street": "Sanganur Road", "use": "commercial", "floors": 1, "match_status": "matched", "severity": "none", "review": false, "name": null}}, {"type": "Feature", "geometry": {"type": "Point", "coordinates": [76.9699316, 11.0349387]}, "properties": {"id": "w1251630155", "kind": "building", "street": "Sanganur Road", "use": null, "floors": null, "match_status": "matched", "severity": "none", "review": false, "name": "ABARIGH STEELS  ALLOYS"}}, {"type": "Feature", "geometry": {"type": "Point", "coordinates": [76.9703305, 11.0349527]}, "properties": {"id": "w1251629682", "kind": "building", "street": "Sanganur Road", "use": "commercial", "floors": 2, "match_status": "discrepancy", "severity": "medium", "review": true, "name": "signature"}}, {"type": "Feature", "geometry": {"type": "Point", "coordinates": [76.9701138, 11.03462]}, "properties": {"id": "w1252507026", "kind": "building", "street": "Sanganur Road", "use": null, "floors": null, "match_status": "matched", "severity": "none", "review": false, "name": null}}, {"type": "Feature", "geometry": {"type": "Point", "coordinates": [76.9686427, 11.0341475]}, "properties": {"id": "w1251630553", "kind": "building", "street": "Sanganur Road", "use": null, "floors": null, "match_status": "matched", "severity": "none", "review": false, "name": null}}, {"type": "Feature", "geometry": {"type": "Point", "coordinates": [76.9689515, 11.03472]}, "properties": {"id": "w1251630909", "kind": "building", "street": "Sanganur Road", "use": "commercial", "floors": 2, "match_status": "matched", "severity": "none", "review": false, "name": "vp dental clinic"}}, {"type": "Feature", "geometry": {"type": "Point", "coordinates": [76.9698242, 11.0348531]}, "properties": {"id": "w1251630278", "kind": "building", "street": "Sanganur Road", "use": "commercial", "floors": 2, "match_status": "matched", "severity": "none", "review": false, "name": "SokaderaSoh"}}, {"type": "Feature", "geometry": {"type": "Point", "coordinates": [76.9706818, 11.0350587]}, "properties": {"id": "w1251629089", "kind": "building", "street": "Sanganur Road", "use": "commercial", "floors": 1, "match_status": "matched", "severity": "none", "review": false, "name": "UNIVERSALENGINEERINC MET"}}, {"type": "Feature", "geometry": {"type": "Point", "coordinates": [76.9691466, 11.0347251]}, "properties": {"id": "w1251630695", "kind": "building", "street": "Sanganur Road", "use": "commercial", "floors": 1, "match_status": "matched", "severity": "none", "review": false, "name": "bismilla beef & chicken stall"}}, {"type": "Feature", "geometry": {"type": "Point", "coordinates": [76.9681689, 11.0348126]}, "properties": {"id": "w1251629128", "kind": "building", "street": "Sanganur Road", "use": "commercial", "floors": null, "match_status": "matched", "severity": "none", "review": false, "name": "Sri Meenatchi Seat Cover"}}, {"type": "Feature", "geometry": {"type": "Point", "coordinates": [76.9686343, 11.034638]}, "properties": {"id": "w1251630957", "kind": "building", "street": "Sanganur Road", "use": "commercial", "floors": null, "match_status": "discrepancy", "severity": "medium", "review": true, "name": "Sri Balaji Jewellery & Finance"}}, {"type": "Feature", "geometry": {"type": "Point", "coordinates": [76.9711748, 11.03486]}, "properties": {"id": "w1251629248", "kind": "building", "street": "Sanganur Road", "use": "residential", "floors": 1, "match_status": "matched", "severity": "none", "review": true, "name": "Premium Sponish The"}}, {"type": "Feature", "geometry": {"type": "Point", "coordinates": [76.9696652, 11.0345478]}, "properties": {"id": "w1251630529", "kind": "building", "street": "Sanganur Road", "use": "commercial", "floors": 2, "match_status": "matched", "severity": "none", "review": false, "name": "sri krishna sweet"}}, {"type": "Feature", "geometry": {"type": "Point", "coordinates": [76.9704427, 11.0349668]}, "properties": {"id": "w1251626253", "kind": "building", "street": "Sanganur Road", "use": "commercial", "floors": 2, "match_status": "matched", "severity": "none", "review": false, "name": null}}, {"type": "Feature", "geometry": {"type": "Point", "coordinates": [76.9695801, 11.0345322]}, "properties": {"id": "w1251630783", "kind": "building", "street": "Sanganur Road", "use": "commercial", "floors": 2, "match_status": "matched", "severity": "none", "review": false, "name": "Thob C yove"}}, {"type": "Feature", "geometry": {"type": "Point", "coordinates": [76.9683425, 11.034592]}, "properties": {"id": "w1251630952", "kind": "building", "street": "Sanganur Road", "use": "residential", "floors": 1, "match_status": "matched", "severity": "none", "review": true, "name": null}}, {"type": "Feature", "geometry": {"type": "Point", "coordinates": [76.9706807, 11.0347545]}, "properties": {"id": "w1251630792", "kind": "building", "street": "Sanganur Road", "use": null, "floors": null, "match_status": "matched", "severity": "none", "review": false, "name": null}}, {"type": "Feature", "geometry": {"type": "Point", "coordinates": [76.9685417, 11.0346289]}, "properties": {"id": "w1251630752", "kind": "building", "street": "Sanganur Road", "use": "commercial", "floors": 2, "match_status": "discrepancy", "severity": "medium", "review": true, "name": null}}, {"type": "Feature", "geometry": {"type": "Point", "coordinates": [76.9705156, 11.0347189]}, "properties": {"id": "w1251630785", "kind": "building", "street": "Sanganur Road", "use": "commercial", "floors": 1, "match_status": "matched", "severity": "none", "review": false, "name": "ONLLOUESTORY"}}, {"type": "Feature", "geometry": {"type": "Point", "coordinates": [76.9688474, 11.0347685]}, "properties": {"id": "w1251626242", "kind": "building", "street": "Sanganur Road", "use": "commercial", "floors": 1, "match_status": "matched", "severity": "none", "review": true, "name": null}}, {"type": "Feature", "geometry": {"type": "Point", "coordinates": [76.9708779, 11.0351044]}, "properties": {"id": "w1252503958", "kind": "building", "street": "Sanganur Road", "use": null, "floors": null, "match_status": "matched", "severity": "none", "review": false, "name": null}}, {"type": "Feature", "geometry": {"type": "Point", "coordinates": [76.9683312, 11.0346538]}, "properties": {"id": "w1251630586", "kind": "building", "street": "Sanganur Road", "use": null, "floors": null, "match_status": "matched", "severity": "none", "review": false, "name": null}}, {"type": "Feature", "geometry": {"type": "Point", "coordinates": [76.9697393, 11.034507]}, "properties": {"id": "w1251630674", "kind": "building", "street": "Sanganur Road", "use": "commercial", "floors": null, "match_status": "matched", "severity": "none", "review": false, "name": "sri krishna sweet shop"}}, {"type": "Feature", "geometry": {"type": "Point", "coordinates": [76.9681394, 11.0345446]}, "properties": {"id": "w1251630454", "kind": "building", "street": "Sanganur Road", "use": "commercial", "floors": 1, "match_status": "matched", "severity": "none", "review": false, "name": "Sri Meenatchi Seat Cover"}}, {"type": "Feature", "geometry": {"type": "Point", "coordinates": [76.9701586, 11.0346676]}, "properties": {"id": "w1251630805", "kind": "building", "street": "Sanganur Road", "use": "other", "floors": 1, "match_status": "matched", "severity": "none", "review": false, "name": null}}, {"type": "Feature", "geometry": {"type": "Point", "coordinates": [76.969056, 11.034804]}, "properties": {"id": "w1251626246", "kind": "building", "street": "Sanganur Road", "use": null, "floors": null, "match_status": "matched", "severity": "none", "review": false, "name": null}}, {"type": "Feature", "geometry": {"type": "Point", "coordinates": [76.9708543, 11.0350278]}, "properties": {"id": "w1251629374", "kind": "building", "street": "Sanganur Road", "use": "commercial", "floors": 2, "match_status": "matched", "severity": "none", "review": false, "name": "palkani stores"}}, {"type": "Feature", "geometry": {"type": "Point", "coordinates": [76.9688406, 11.0346585]}, "properties": {"id": "w1251626241", "kind": "building", "street": "Sanganur Road", "use": "commercial", "floors": 2, "match_status": "discrepancy", "severity": "medium", "review": true, "name": null}}, {"type": "Feature", "geometry": {"type": "Point", "coordinates": [76.9697493, 11.0347999]}, "properties": {"id": "w1251630161", "kind": "building", "street": "Sanganur Road", "use": "commercial", "floors": 1, "match_status": "matched", "severity": "none", "review": false, "name": null}}, {"type": "Feature", "geometry": {"type": "Point", "coordinates": [76.9708101, 11.0350271]}, "properties": {"id": "w1251629719", "kind": "building", "street": "Sanganur Road", "use": "commercial", "floors": null, "match_status": "matched", "severity": "none", "review": false, "name": "SRI DAKSHATHA MEIAL MART"}}, {"type": "Feature", "geometry": {"type": "Point", "coordinates": [76.9688278, 11.0344521]}, "properties": {"id": "w1251631166", "kind": "building", "street": "Sanganur Road", "use": "commercial", "floors": 1, "match_status": "no_record", "severity": "high", "review": true, "name": null}}, {"type": "Feature", "geometry": {"type": "Point", "coordinates": [76.971008, 11.0348437]}, "properties": {"id": "asset-0000", "kind": "streetlight", "confidence": "medium", "street": "Sanganur Road", "uncertainty_m": 5.0, "register_status": "discrepancy"}}, {"type": "Feature", "geometry": {"type": "Point", "coordinates": [76.971358, 11.0350259]}, "properties": {"id": "asset-0001", "kind": "streetlight", "confidence": "low", "street": "Sanganur Road", "uncertainty_m": 2.4, "register_status": "unconfirmed_detection"}}, {"type": "Feature", "geometry": {"type": "Point", "coordinates": [76.9703611, 11.0347683]}, "properties": {"id": "asset-0002", "kind": "pole", "confidence": "low", "street": "Sanganur Road", "uncertainty_m": 5.0, "register_status": "unconfirmed_detection"}}, {"type": "Feature", "geometry": {"type": "Point", "coordinates": [76.9680899, 11.0344553]}, "properties": {"id": "asset-0003", "kind": "pole", "confidence": "low", "street": "Sanganur Road", "uncertainty_m": 5.0, "register_status": "matched"}}, {"type": "Feature", "geometry": {"type": "Point", "coordinates": [76.9705882, 11.0349503]}, "properties": {"id": "asset-0004", "kind": "pole", "confidence": "medium", "street": "Sanganur Road", "uncertainty_m": 2.4, "register_status": "discrepancy"}}, {"type": "Feature", "geometry": {"type": "Point", "coordinates": [76.9708634, 11.0348695]}, "properties": {"id": "asset-0005", "kind": "pole", "confidence": "medium", "street": "Sanganur Road", "uncertainty_m": 5.0, "register_status": "matched"}}, {"type": "Feature", "geometry": {"type": "Point", "coordinates": [76.9688942, 11.0345163]}, "properties": {"id": "asset-0006", "kind": "streetlight", "confidence": "low", "street": "Sanganur Road", "uncertainty_m": 5.0, "register_status": "unconfirmed_detection"}}, {"type": "Feature", "geometry": {"type": "Point", "coordinates": [76.9701954, 11.0347578]}, "properties": {"id": "asset-0007", "kind": "streetlight", "confidence": "high", "street": "Sanganur Road", "uncertainty_m": 1.43, "register_status": "discrepancy"}}, {"type": "Feature", "geometry": {"type": "Point", "coordinates": [76.9695955, 11.0347455]}, "properties": {"id": "asset-0008", "kind": "pole", "confidence": "low", "street": "Sanganur Road", "uncertainty_m": 5.0, "register_status": "unconfirmed_detection"}}, {"type": "Feature", "geometry": {"type": "Point", "coordinates": [76.9696582, 11.0347612]}, "properties": {"id": "asset-0009", "kind": "pole", "confidence": "medium", "street": "Sanganur Road", "uncertainty_m": 2.4, "register_status": "unrecorded_asset"}}, {"type": "Feature", "geometry": {"type": "Point", "coordinates": [76.9699261, 11.0348103]}, "properties": {"id": "asset-0010", "kind": "pole", "confidence": "low", "street": "Sanganur Road", "uncertainty_m": 2.4, "register_status": "unconfirmed_detection"}}, {"type": "Feature", "geometry": {"type": "Point", "coordinates": [76.9713602, 11.0349444]}, "properties": {"id": "asset-0011", "kind": "pole", "confidence": "low", "street": "Sanganur Road", "uncertainty_m": 5.0, "register_status": "unconfirmed_detection"}}, {"type": "Feature", "geometry": {"type": "Point", "coordinates": [76.9712112, 11.0350211]}, "properties": {"id": "asset-0012", "kind": "pole", "confidence": "low", "street": "Sanganur Road", "uncertainty_m": 5.0, "register_status": "unconfirmed_detection"}}, {"type": "Feature", "geometry": {"type": "Point", "coordinates": [76.9683662, 11.0344482]}, "properties": {"id": "asset-0013", "kind": "pole", "confidence": "medium", "street": "Sanganur Road", "uncertainty_m": 5.0, "register_status": "matched"}}, {"type": "Feature", "geometry": {"type": "Point", "coordinates": [76.9702558, 11.0348958]}, "properties": {"id": "asset-0014", "kind": "pole", "confidence": "low", "street": "Sanganur Road", "uncertainty_m": 2.4, "register_status": "unconfirmed_detection"}}, {"type": "Feature", "geometry": {"type": "Point", "coordinates": [76.9691352, 11.0346713]}, "properties": {"id": "asset-0015", "kind": "pole", "confidence": "medium", "street": "Sanganur Road", "uncertainty_m": 2.4, "register_status": "unrecorded_asset"}}, {"type": "Feature", "geometry": {"type": "Point", "coordinates": [76.9707388, 11.0349665]}, "properties": {"id": "asset-0016", "kind": "pole", "confidence": "low", "street": "Sanganur Road", "uncertainty_m": 5.0, "register_status": "unconfirmed_detection"}}, {"type": "Feature", "geometry": {"type": "Point", "coordinates": [76.9698386, 11.0348037]}, "properties": {"id": "asset-0017", "kind": "pole", "confidence": "medium", "street": "Sanganur Road", "uncertainty_m": 2.4, "register_status": "matched"}}, {"type": "Feature", "geometry": {"type": "Point", "coordinates": [76.9702067, 11.0348839]}, "properties": {"id": "asset-0018", "kind": "pole", "confidence": "medium", "street": "Sanganur Road", "uncertainty_m": 2.4, "register_status": "unrecorded_asset"}}, {"type": "Feature", "geometry": {"type": "Point", "coordinates": [76.970052, 11.0347238]}, "properties": {"id": "asset-0019", "kind": "pole", "confidence": "medium", "street": "Sanganur Road", "uncertainty_m": 5.0, "register_status": "unrecorded_asset"}}, {"type": "Feature", "geometry": {"type": "Point", "coordinates": [76.9707932, 11.0348198]}, "properties": {"id": "asset-0020", "kind": "pole", "confidence": "low", "street": "Sanganur Road", "uncertainty_m": 5.0, "register_status": "unconfirmed_detection"}}, {"type": "Feature", "geometry": {"type": "Point", "coordinates": [76.9694097, 11.0347201]}, "properties": {"id": "asset-0021", "kind": "streetlight", "confidence": "high", "street": "Sanganur Road", "uncertainty_m": 5.0, "register_status": "matched"}}, {"type": "Feature", "geometry": {"type": "Point", "coordinates": [76.9685289, 11.0345746]}, "properties": {"id": "asset-0022", "kind": "pole", "confidence": "medium", "street": "Sanganur Road", "uncertainty_m": 2.4, "register_status": "matched"}}, {"type": "Feature", "geometry": {"type": "Point", "coordinates": [76.9682173, 11.0345478]}, "properties": {"id": "asset-0023", "kind": "pole", "confidence": "medium", "street": "Sanganur Road", "uncertainty_m": 2.4, "register_status": "unrecorded_asset"}}, {"type": "Feature", "geometry": {"type": "Point", "coordinates": [76.9703625, 11.0349635]}, "properties": {"id": "asset-0024", "kind": "pole", "confidence": "low", "street": "Sanganur Road", "uncertainty_m": 5.0, "register_status": "unconfirmed_detection"}}, {"type": "Feature", "geometry": {"type": "Point", "coordinates": [76.9684849, 11.0346095]}, "properties": {"id": "asset-0025", "kind": "pole", "confidence": "low", "street": "Sanganur Road", "uncertainty_m": 5.0, "register_status": "unconfirmed_detection"}}, {"type": "Feature", "geometry": {"type": "Point", "coordinates": [76.9692987, 11.0347227]}, "properties": {"id": "asset-0026", "kind": "streetlight", "confidence": "medium", "street": "Sanganur Road", "uncertainty_m": 2.4, "register_status": "matched"}}, {"type": "Feature", "geometry": {"type": "Point", "coordinates": [76.9687912, 11.034658]}, "properties": {"id": "asset-0027", "kind": "pole", "confidence": "low", "street": "Sanganur Road", "uncertainty_m": 2.4, "register_status": "unconfirmed_detection"}}, {"type": "Feature", "geometry": {"type": "Point", "coordinates": [76.9710967, 11.0348866]}, "properties": {"id": "asset-0028", "kind": "pole", "confidence": "low", "street": "Sanganur Road", "uncertainty_m": 5.0, "register_status": "unconfirmed_detection"}}, {"type": "Feature", "geometry": {"type": "Point", "coordinates": [76.9702383, 11.0347227]}, "properties": {"id": "asset-0029", "kind": "pole", "confidence": "low", "street": "Sanganur Road", "uncertainty_m": 5.0, "register_status": "unconfirmed_detection"}}, {"type": "Feature", "geometry": {"type": "Point", "coordinates": [76.9694762, 11.0346067]}, "properties": {"id": "asset-0030", "kind": "streetlight", "confidence": "medium", "street": "Sanganur Road", "uncertainty_m": 5.0, "register_status": "matched"}}, {"type": "Feature", "geometry": {"type": "Point", "coordinates": [76.9690695, 11.0345367]}, "properties": {"id": "asset-0031", "kind": "pole", "confidence": "medium", "street": "Sanganur Road", "uncertainty_m": 5.0, "register_status": "matched"}}, {"type": "Feature", "geometry": {"type": "Point", "coordinates": [76.9712885, 11.0350255]}, "properties": {"id": "asset-0032", "kind": "pole", "confidence": "medium", "street": "Sanganur Road", "uncertainty_m": 2.4, "register_status": "matched"}}]}