{"type": "FeatureCollection", "features": [{"type": "Feature", "geometry": {"type": "Point", "coordinates": [77.3462878, 11.1092808]}, "properties": {"id": "w344655428", "kind": "building", "street": "Uthukuli Road", "use": "commercial", "floors": 3, "match_status": "matched", "severity": "none", "review": false, "name": null}}, {"type": "Feature", "geometry": {"type": "Point", "coordinates": [77.3408211, 11.1079342]}, "properties": {"id": "asset-0000", "kind": "pole", "confidence": "low", "street": "Uthukuli Road", "uncertainty_m": 5.0, "register_status": "unconfirmed_detection"}}, {"type": "Feature", "geometry": {"type": "Point", "coordinates": [77.3419604, 11.1084245]}, "properties": {"id": "asset-0001", "kind": "streetlight", "confidence": "low", "street": "Uthukuli Road", "uncertainty_m": 5.0, "register_status": "unconfirmed_detection"}}, {"type": "Feature", "geometry": {"type": "Point", "coordinates": [77.3447799, 11.1094256]}, "properties": {"id": "asset-0002", "kind": "streetlight", "confidence": "medium", "street": "Uthukuli Road", "uncertainty_m": 5.0, "register_status": "discrepancy"}}, {"type": "Feature", "geometry": {"type": "Point", "coordinates": [77.3419486, 11.108227]}, "properties": {"id": "asset-0003", "kind": "streetlight", "confidence": "medium", "street": "Uthukuli Road", "uncertainty_m": 5.0, "register_status": "discrepancy"}}, {"type": "Feature", "geometry": {"type": "Point", "coordinates": [77.3444666, 11.1094253]}, "properties": {"id": "asset-0004", "kind": "pole", "confidence": "low", "street": "Uthukuli Road", "uncertainty_m": 2.4, "register_status": "unconfirmed_detection"}}, {"type": "Feature", "geometry": {"type": "Point", "coordinates": [77.3448578, 11.1093262]}, "properties": {"id": "asset-0005", "kind": "pole", "confidence": "low", "street": "Uthukuli Road", "uncertainty_m": 2.4, "register_status": "unconfirmed_detection"}}, {"type": "Feature", "geometry": {"type": "Point", "coordinates": [77.345023, 11.1097526]}, "properties": {"id": "asset-0006", "kind": "pole", "confidence": "low", "street": "Uthukuli Road", "uncertainty_m": 5.0, "register_status": "unconfirmed_detection"}}, {"type": "Feature", "geometry": {"type": "Point", "coordinates": [77.3442436, 11.1093238]}, "properties": {"id": "asset-0007", "kind": "pole", "confidence": "low", "street": "Uthukuli Road", "uncertainty_m": 2.4, "register_status": "unconfirmed_detection"}}, {"type": "Feature", "geometry": {"type": "Point", "coordinates": [77.3454783, 11.1097137]}, "properties": {"id": "asset-0008", "kind": "pole", "confidence": "medium", "street": "Uthukuli Road", "uncertainty_m": 5.0, "register_status": "matched"}}, {"type": "Feature", "geometry": {"type": "Point", "coordinates": [77.3457747, 11.1097798]}, "properties": {"id": "asset-0009", "kind": "pole", "confidence": "medium", "street": "Uthukuli Road", "uncertainty_m": 5.0, "register_status": "discrepancy"}}, {"type": "Feature", "geometry": {"type": "Point", "coordinates": [77.3437352, 11.1089575]}, "properties": {"id": "asset-0010", "kind": "pole", "confidence": "low", "street": "Uthukuli Road", "uncertainty_m": 2.4, "register_status": "unconfirmed_detection"}}, {"type": "Feature", "geometry": {"type": "Point", "coordinates": [77.3446066, 11.1093665]}, "properties": {"id": "asset-0011", "kind": "pole", "confidence": "low", "street": "Uthukuli Road", "uncertainty_m": 5.0, "register_status": "unconfirmed_detection"}}, {"type": "Feature", "geometry": {"type": "Point", "coordinates": [77.3426478, 11.1083225]}, "properties": {"id": "asset-0012", "kind": "pole", "confidence": "low", "street": "Uthukuli Road", "uncertainty_m": 5.0, "register_status": "unconfirmed_detection"}}, {"type": "Feature", "geometry": {"type": "Point", "coordinates": [77.3418021, 11.1084062]}, "properties": {"id": "asset-0013", "kind": "streetlight", "confidence": "low", "street": "Uthukuli Road", "uncertainty_m": 5.0, "register_status": "unconfirmed_detection"}}, {"type": "Feature", "geometry": {"type": "Point", "coordinates": [77.3442359, 11.1091563]}, "properties": {"id": "asset-0014", "kind": "streetlight", "confidence": "low", "street": "Uthukuli Road", "uncertainty_m": 5.0, "register_status": "unconfirmed_detection"}}, {"type": "Feature", "geometry": {"type": "Point", "coordinates": [77.3428643, 11.1084368]}, "properties": {"id": "asset-0015", "kind": "pole", "confidence": "low", "street": "Uthukuli Road", "uncertainty_m": 5.0, "register_status": "unconfirmed_detection"}}, {"type": "Feature", "geometry": {"type": "Point", "coordinates": [77.3451597, 11.1095804]}, "properties": {"id": "asset-0016", "kind": "pole", "confidence": "low", "street": "Uthukuli Road", "uncertainty_m": 5.0, "register_status": "unconfirmed_detection"}}, {"type": "Feature", "geometry": {"type": "Point", "coordinates": [77.3449047, 11.1096474]}, "properties": {"id": "asset-0017", "kind": "pole", "confidence": "medium", "street": "Uthukuli Road", "uncertainty_m": 5.0, "register_status": "unrecorded_asset"}}, {"type": "Feature", "geometry": {"type": "Point", "coordinates": [77.3428302, 11.1085637]}, "properties": {"id": "asset-0018", "kind": "pole", "confidence": "medium", "street": "Uthukuli Road", "uncertainty_m": 2.4, "register_status": "matched"}}, {"type": "Feature", "geometry": {"type": "Point", "coordinates": [77.3440384, 11.1090457]}, "properties": {"id": "asset-0019", "kind": "pole", "confidence": "medium", "street": "Uthukuli Road", "uncertainty_m": 5.0, "register_status": "unrecorded_asset"}}, {"type": "Feature", "geometry": {"type": "LineString", "coordinates": [[77.34667211676728, 11.11009061759171], [77.34505361278677, 11.10964792917734]]}, "properties": {"id": "gap60-000", "kind": "streetlight_gap", "street": "Uthukuli Road", "length_m": 194, "gap_type": "poles present, no lamp detected"}}, {"type": "Feature", "geometry": {"type": "LineString", "coordinates": [[77.34395978891895, 11.10913406299213], [77.3422675531278, 11.10834601379181]]}, "properties": {"id": "gap60-001", "kind": "streetlight_gap", "street": "Uthukuli Road", "length_m": 216, "gap_type": "poles present, no lamp detected"}}, {"type": "Feature", "geometry": {"type": "LineString", "coordinates": [[77.34155689789141, 11.10819301723301], [77.34075028579758, 11.10790338950598]]}, "properties": {"id": "gap60-002", "kind": "streetlight_gap", "street": "Uthukuli Road", "length_m": 106, "gap_type": "poles present, no lamp detected"}}, {"type": "Feature", "geometry": {"type": "Point", "coordinates": [77.3428679, 11.108644]}, "properties": {"id": "ub-0000", "kind": "unmapped_business", "name": "true value solutions", "street": "Uthukuli Road", "approximate": true}}, {"type": "Feature", "geometry": {"type": "Point", "coordinates": [77.3407688, 11.1080103]}, "properties": {"id": "ub-0001", "kind": "unmapped_business", "name": "V.R.CLOTHING", "street": "Uthukuli Road", "approximate": true}}, {"type": "Feature", "geometry": {"type": "Point", "coordinates": [77.343947, 11.1092418]}, "properties": {"id": "ub-0002", "kind": "unmapped_business", "name": "mkm motors", "street": "Uthukuli Road", "approximate": true}}, {"type": "Feature", "geometry": {"type": "Point", "coordinates": [77.342943, 11.1086709]}, "properties": {"id": "ub-0003", "kind": "unmapped_business", "name": "adventist nursery school", "street": "Uthukuli Road", "approximate": true}}, {"type": "Feature", "geometry": {"type": "Point", "coordinates": [77.3432623, 11.1088737]}, "properties": {"id": "ub-0004", "kind": "unmapped_business", "name": "nathika associates", "street": "Uthukuli Road", "approximate": true}}, {"type": "Feature", "geometry": {"type": "Point", "coordinates": [77.3436408, 11.1091067]}, "properties": {"id": "ub-0005", "kind": "unmapped_business", "name": "idm60 saloon", "street": "Uthukuli Road", "approximate": true}}, {"type": "Feature", "geometry": {"type": "Point", "coordinates": [77.3465874, 11.1099732]}, "properties": {"id": "ub-0006", "kind": "unmapped_business", "name": "Edelweiss Mutual Fund", "street": "Uthukuli Road", "approximate": true}}, {"type": "Feature", "geometry": {"type": "Point", "coordinates": [77.3463501, 11.1100889]}, "properties": {"id": "ub-0007", "kind": "unmapped_business", "name": "century door", "street": "Uthukuli Road", "approximate": true}}, {"type": "Feature", "geometry": {"type": "Point", "coordinates": [77.345853, 11.1097871]}, "properties": {"id": "ub-0008", "kind": "unmapped_business", "name": "MARUTI SUZUKI SERVICE", "street": "Uthukuli Road", "approximate": true}}, {"type": "Feature", "geometry": {"type": "Point", "coordinates": [77.3464226, 11.1101149]}, "properties": {"id": "ub-0009", "kind": "unmapped_business", "name": "coimbatore association", "street": "Uthukuli Road", "approximate": true}}, {"type": "Feature", "geometry": {"type": "Point", "coordinates": [77.3441838, 11.109128]}, "properties": {"id": "ub-0010", "kind": "unmapped_business", "name": "kc ortho hospital", "street": "Uthukuli Road", "approximate": true}}, {"type": "Feature", "geometry": {"type": "Point", "coordinates": [77.3438577, 11.1089786]}, "properties": {"id": "ub-0011", "kind": "unmapped_business", "name": "granda furniture", "street": "Uthukuli Road", "approximate": true}}, {"type": "Feature", "geometry": {"type": "Point", "coordinates": [77.3444568, 11.1092674]}, "properties": {"id": "ub-0012", "kind": "unmapped_business", "name": "moto service", "street": "Uthukuli Road", "approximate": true}}, {"type": "Feature", "geometry": {"type": "Point", "coordinates": [77.3437608, 11.1091381]}, "properties": {"id": "ub-0013", "kind": "unmapped_business", "name": "hayam jobs", "street": "Uthukuli Road", "approximate": true}}]}