{
"type": "FeatureCollection",
"name": "Study_area",
"crs": { "type": "name", "properties": { "name": "urn:ogc:def:crs:OGC:1.3:CRS84" } },
"features": [
{"type":"Feature","properties":{"townname":"Coimbatore","ward_lgd_name":"29","state":"Tamil Nadu","zone":"North Zone"},"geometry":{"type":"MultiPolygon","coordinates":[[[[76.984758432059195,11.035913435773899],[76.984862378815606,11.035354675306699],[76.984886359342099,11.0353076010854],[76.984917533577402,11.035239343010399],[76.984953504816403,11.035164025104899],[76.984987077553498,11.035112243427401],[76.985039834711799,11.035034571335],[76.985087794866502,11.0349851429078],[76.985126163708898,11.0349521917939],[76.985216470446105,11.0349237603017],[76.985448024685297,11.034767194833201],[76.985674433374598,11.0345601242183],[76.985875113415801,11.034322750041399],[76.985967735111501,11.0341863859532],[76.986116958754906,11.033974263618701],[76.986317638796095,11.0336156767949],[76.986753445676399,11.032681530913599],[76.984776081259497,11.031539681537801],[76.981251496326493,11.029519921094201],[76.979442252513394,11.0284677150548],[76.978358963332497,11.027880693420199],[76.978034277154507,11.0277392176134],[76.977704475969304,11.027592720297299],[76.977324121193206,11.027462763252499],[76.976946173003697,11.027377700252099],[76.976599520322097,11.0273115397318],[76.976269719136894,11.027278459907],[76.975944131050298,11.0272567508565],[76.975648632932604,11.0272595565184],[76.975265870671507,11.027290274193501],[76.974834962304399,11.027349345619299],[76.974490576072299,11.027416890444901],[76.974188936172894,11.027494214504401],[76.974182581490595,11.027495843056601],[76.973315949786496,11.027880988798801],[76.972502279158405,11.028301576775601],[76.971766148410595,11.028683174283399],[76.971849898344502,11.0289631755538],[76.971852305829501,11.029012795446199],[76.971840269303001,11.029078954701999],[76.971820467739207,11.0291566980246],[76.971689831137297,11.0298611756309],[76.971516149063703,11.030797779890699],[76.970783459761705,11.030626616248799],[76.970198484035194,11.0304872085137],[76.970125647733695,11.0308844642629],[76.969935739391104,11.0319202352998],[76.970164933755996,11.0319874951629],[76.970915107866603,11.0322076425311],[76.972514422584396,11.032569048146501],[76.972344035531194,11.033250385884299],[76.971928418286893,11.0344967347575],[76.971415491039394,11.034433309133],[76.971298430676498,11.034948259385301],[76.9716705613762,11.0350078724027],[76.972196408193994,11.035113684134201],[76.972405624925401,11.0351557829232],[76.972490242631906,11.035172675515801],[76.973046331233803,11.035279001221999],[76.973424279423298,11.035354610942299],[76.973616863847099,11.0353829639211],[76.9739490725173,11.0354018667872],[76.974160915922596,11.035397140850399],[76.974601553044096,11.034134211743201],[76.974801260209901,11.0336321268577],[76.9748909327365,11.033270911235901],[76.975105333645402,11.032240870810901],[76.975142608339794,11.032064477678199],[76.975253927569796,11.031671446942701],[76.975340497315401,11.0314181642658],[76.9755066020996,11.030950324195],[76.975521046111098,11.0309007046296],[76.975567977694794,11.030569424425],[76.975568144781406,11.0305690964255],[76.975574378191197,11.0305568590455],[76.975595714975796,11.030540105499201],[76.975611717564306,11.0305359164512],[76.975627720152801,11.030531728284901],[76.975638388545093,11.030531728284901],[76.975655457433803,11.0305327757673],[76.975671460022298,11.0305380114161],[76.975678927717198,11.0305411520999],[76.975692796806896,11.0305526708794],[76.975714519867097,11.0305783562396],[76.975765307918294,11.030638408357801],[76.976211943989398,11.031096819837799],[76.976657392487596,11.031532714216199],[76.977071834735497,11.0319304252807],[76.977424649859998,11.0322162321908],[76.977544822885406,11.0323145256716],[76.977611072739293,11.032375013883399],[76.977675781084201,11.0324400384987],[76.9777550295602,11.032535780226601],[76.977952428953998,11.0328122298162],[76.978046313681006,11.0329469104722],[76.978101682241899,11.033039060823199],[76.978171493915795,11.033138298341701],[76.978226862476703,11.0332304486327],[76.978306303192198,11.0333934822677],[76.978347227741594,11.033473818441101],[76.978383337321105,11.033617949843199],[76.978414632829001,11.0337242761121],[76.978433890912001,11.0338565933691],[76.978460371449998,11.0340054505428],[76.978460371449998,11.034154307641099],[76.978457963964999,11.034338605793399],[76.9784459274385,11.0344945516501],[76.9784266693555,11.034600877601701],[76.978396577590104,11.034725514799099],[76.978310064438304,11.0349876381354],[76.978202789423705,11.0354325827296],[76.978166679844307,11.0355979789913],[76.978147420862896,11.035746834400999],[76.978145013377897,11.0358555228641],[76.978154931676997,11.036022431008],[76.978170338682403,11.036064772134999],[76.978188826909303,11.036095015415601],[76.978221180632502,11.036128283814101],[76.978251994643401,11.0361524786099],[76.978284348366699,11.0361781855232],[76.978312081156105,11.0362038933159],[76.978341353657996,11.0362280881054],[76.978429172960105,11.0363173066503],[76.9785185319747,11.036429208704501],[76.978592484882199,11.036556231891399],[76.978657193226994,11.0366696459715],[76.978677222064604,11.036721059705201],[76.978726994121303,11.037127515495801],[76.978868287437294,11.037129136059299],[76.979222565917397,11.037202340027999],[76.979828654748005,11.0373442997402],[76.9805931524958,11.037542591969],[76.981346099705704,11.0377370486793],[76.981708768450503,11.037836000704401],[76.981892737132597,11.037865784438299],[76.982055843340405,11.0378806771859],[76.982196233849606,11.0378792990932],[76.9823131684484,11.037867756795],[76.982755104533894,11.037795536966501],[76.982936612730398,11.037766505313501],[76.983202504172993,11.0376952791334],[76.9833929362334,11.037644265860999],[76.983586388429899,11.037580974934199],[76.983635699650804,11.037554913701101],[76.983696390729705,11.037497207432301],[76.983726735819999,11.037445084948899],[76.983730953410202,11.037426563107999],[76.9838037968983,11.0371556919636],[76.983871891891795,11.036957755680501],[76.983947731261296,11.0367373103298],[76.9840266491573,11.0365894349918],[76.984105567053405,11.0364591645129],[76.984213181631205,11.0363887482997],[76.984342319843194,11.036293685856],[76.9844858068452,11.0362021440187],[76.984625706874297,11.0360929980801],[76.984690275980199,11.0360155405008],[76.984758432059195,11.035913435773899]]]]}}
]
}
