{"type": "FeatureCollection", "features": [{"type": "Feature", "geometry": {"type": "Point", "coordinates": [76.9614065, 11.0362312]}, "properties": {"id": "w1251144582", "kind": "building", "street": "Rathinapuri (Sanganoor) Main Road", "use": "commercial", "floors": 2, "match_status": "matched", "severity": "none", "review": false, "name": "PRIYAHARDWARES"}}, {"type": "Feature", "geometry": {"type": "Point", "coordinates": [76.9653096, 11.0340152]}, "properties": {"id": "w1251630849", "kind": "building", "street": "Rathinapuri (Sanganoor) Main Road", "use": "commercial", "floors": 1, "match_status": "matched", "severity": "none", "review": false, "name": null}}, {"type": "Feature", "geometry": {"type": "Point", "coordinates": [76.961822, 11.0351307]}, "properties": {"id": "w1251143766", "kind": "building", "street": "Rathinapuri (Sanganoor) Main Road", "use": "under_construction", "floors": 2, "match_status": "matched", "severity": "none", "review": false, "name": null}}, {"type": "Feature", "geometry": {"type": "Point", "coordinates": [76.9612133, 11.0370918]}, "properties": {"id": "w1251143366", "kind": "building", "street": "Rathinapuri (Sanganoor) Main Road", "use": "commercial", "floors": 1, "match_status": "matched", "severity": "none", "review": false, "name": "traders"}}, {"type": "Feature", "geometry": {"type": "Point", "coordinates": [76.9657008, 11.0338839]}, "properties": {"id": "w1251626308", "kind": "building", "street": "Rathinapuri (Sanganoor) Main Road", "use": "other", "floors": 2, "match_status": "matched", "severity": "none", "review": false, "name": "GANESHAPURAM"}}, {"type": "Feature", "geometry": {"type": "Point", "coordinates": [76.9619361, 11.0359724]}, "properties": {"id": "w1251143996", "kind": "building", "street": "Rathinapuri (Sanganoor) Main Road", "use": "commercial", "floors": 1, "match_status": "discrepancy", "severity": "medium", "review": true, "name": "maruti suzuki service"}}, {"type": "Feature", "geometry": {"type": "Point", "coordinates": [76.9615168, 11.0346498]}, "properties": {"id": "w1251143187", "kind": "building", "street": "Rathinapuri (Sanganoor) Main Road", "use": "residential", "floors": 2, "match_status": "matched", "severity": "none", "review": false, "name": null}}, {"type": "Feature", "geometry": {"type": "Point", "coordinates": [76.9652334, 11.0337687]}, "properties": {"id": "w1251630937", "kind": "building", "street": "Rathinapuri (Sanganoor) Main Road", "use": "industrial", "floors": 1, "match_status": "matched", "severity": "none", "review": true, "name": "rent"}}, {"type": "Feature", "geometry": {"type": "Point", "coordinates": [76.9613451, 11.034095]}, "properties": {"id": "w1251144622", "kind": "building", "street": "Rathinapuri (Sanganoor) Main Road", "use": "commercial", "floors": 1, "match_status": "matched", "severity": "none", "review": false, "name": null}}, {"type": "Feature", "geometry": {"type": "Point", "coordinates": [76.961417, 11.0356916]}, "properties": {"id": "w1251143251", "kind": "building", "street": "Rathinapuri (Sanganoor) Main Road", "use": "commercial", "floors": 1, "match_status": "matched", "severity": "none", "review": false, "name": "WILLOWBLOO"}}, {"type": "Feature", "geometry": {"type": "Point", "coordinates": [76.9618418, 11.0357123]}, "properties": {"id": "w1251143301", "kind": "building", "street": "Rathinapuri (Sanganoor) Main Road", "use": "commercial", "floors": 1, "match_status": "matched", "severity": "none", "review": false, "name": "GURU CARS"}}, {"type": "Feature", "geometry": {"type": "Point", "coordinates": [76.9618473, 11.0355364]}, "properties": {"id": "w1251144027", "kind": "building", "street": "Rathinapuri (Sanganoor) Main Road", "use": "other", "floors": 1, "match_status": "matched", "severity": "none", "review": false, "name": "sudhan motors"}}, {"type": "Feature", "geometry": {"type": "Point", "coordinates": [76.9613692, 11.0366999]}, "properties": {"id": "w1251142631", "kind": "building", "street": "Rathinapuri (Sanganoor) Main Road", "use": null, "floors": null, "match_status": "matched", "severity": "none", "review": false, "name": "amaron"}}, {"type": "Feature", "geometry": {"type": "Point", "coordinates": [76.9611807, 11.0348977]}, "properties": {"id": "w1251143943", "kind": "building", "street": "Rathinapuri (Sanganoor) Main Road", "use": null, "floors": null, "match_status": "matched", "severity": "none", "review": false, "name": null}}, {"type": "Feature", "geometry": {"type": "Point", "coordinates": [76.9616619, 11.034971]}, "properties": {"id": "w1251144280", "kind": "building", "street": "Rathinapuri (Sanganoor) Main Road", "use": "commercial", "floors": 1, "match_status": "matched", "severity": "none", "review": false, "name": "SRLLAKSHMI"}}, {"type": "Feature", "geometry": {"type": "Point", "coordinates": [76.9612527, 11.0350808]}, "properties": {"id": "w1251144637", "kind": "building", "street": "Rathinapuri (Sanganoor) Main Road", "use": "residential", "floors": 2, "match_status": "matched", "severity": "none", "review": false, "name": null}}, {"type": "Feature", "geometry": {"type": "Point", "coordinates": [76.9615242, 11.0349198]}, "properties": {"id": "w1251144068", "kind": "building", "street": "Rathinapuri (Sanganoor) Main Road", "use": "commercial", "floors": 1, "match_status": "matched", "severity": "none", "review": false, "name": null}}, {"type": "Feature", "geometry": {"type": "Point", "coordinates": [76.9656971, 11.0335213]}, "properties": {"id": "w1252506747", "kind": "building", "street": "Rathinapuri (Sanganoor) Main Road", "use": "residential", "floors": 2, "match_status": "matched", "severity": "none", "review": false, "name": null}}, {"type": "Feature", "geometry": {"type": "Point", "coordinates": [76.961006, 11.0369129]}, "properties": {"id": "w1251143945", "kind": "building", "street": "Rathinapuri (Sanganoor) Main Road", "use": "commercial", "floors": 2, "match_status": "matched", "severity": "none", "review": false, "name": "CocaCola"}}, {"type": "Feature", "geometry": {"type": "Point", "coordinates": [76.9658521, 11.0335888]}, "properties": {"id": "w1251626301", "kind": "building", "street": "Rathinapuri (Sanganoor) Main Road", "use": null, "floors": null, "match_status": "matched", "severity": "none", "review": false, "name": null}}, {"type": "Feature", "geometry": {"type": "Point", "coordinates": [76.9614139, 11.0353468]}, "properties": {"id": "w1251143159", "kind": "building", "street": "Rathinapuri (Sanganoor) Main Road", "use": "commercial", "floors": null, "match_status": "matched", "severity": "none", "review": false, "name": "ANSTORE"}}, {"type": "Feature", "geometry": {"type": "Point", "coordinates": [76.9618722, 11.0362318]}, "properties": {"id": "w1251143411", "kind": "building", "street": "Rathinapuri (Sanganoor) Main Road", "use": "commercial", "floors": null, "match_status": "matched", "severity": "none", "review": false, "name": "sheela hospital"}}, {"type": "Feature", "geometry": {"type": "Point", "coordinates": [76.9654353, 11.0333889]}, "properties": {"id": "w1251630810", "kind": "building", "street": "Rathinapuri (Sanganoor) Main Road", "use": null, "floors": null, "match_status": "matched", "severity": "none", "review": false, "name": null}}, {"type": "Feature", "geometry": {"type": "Point", "coordinates": [76.9610468, 11.0345706]}, "properties": {"id": "w1251144004", "kind": "building", "street": "Rathinapuri (Sanganoor) Main Road", "use": null, "floors": null, "match_status": "matched", "severity": "none", "review": false, "name": null}}, {"type": "Feature", "geometry": {"type": "Point", "coordinates": [76.96191, 11.0362946]}, "properties": {"id": "w1251143308", "kind": "building", "street": "Rathinapuri (Sanganoor) Main Road", "use": "residential", "floors": 2, "match_status": "discrepancy", "severity": "medium", "review": true, "name": null}}, {"type": "Feature", "geometry": {"type": "Point", "coordinates": [76.9610669, 11.0366824]}, "properties": {"id": "w1238009026", "kind": "building", "street": "Rathinapuri (Sanganoor) Main Road", "use": null, "floors": null, "match_status": "matched", "severity": "none", "review": false, "name": "siva"}}, {"type": "Feature", "geometry": {"type": "Point", "coordinates": [76.9652132, 11.0335709]}, "properties": {"id": "w1251630689", "kind": "building", "street": "Rathinapuri (Sanganoor) Main Road", "use": null, "floors": null, "match_status": "matched", "severity": "none", "review": false, "name": null}}, {"type": "Feature", "geometry": {"type": "Point", "coordinates": [76.9609323, 11.0366055]}, "properties": {"id": "w1251142715", "kind": "building", "street": "Rathinapuri (Sanganoor) Main Road", "use": "commercial", "floors": 2, "match_status": "matched", "severity": "none", "review": false, "name": null}}, {"type": "Feature", "geometry": {"type": "Point", "coordinates": [76.9614141, 11.0365542]}, "properties": {"id": "w1251143976", "kind": "building", "street": "Rathinapuri (Sanganoor) Main Road", "use": "commercial", "floors": 2, "match_status": "matched", "severity": "none", "review": false, "name": "SRIAYYAPPA"}}, {"type": "Feature", "geometry": {"type": "Point", "coordinates": [76.9612796, 11.0345866]}, "properties": {"id": "w1251143088", "kind": "building", "street": "Rathinapuri (Sanganoor) Main Road", "use": "residential", "floors": 1, "match_status": "matched", "severity": "none", "review": false, "name": "ramraj"}}, {"type": "Feature", "geometry": {"type": "Point", "coordinates": [76.9658434, 11.0342366]}, "properties": {"id": "w1251626306", "kind": "building", "street": "Rathinapuri (Sanganoor) Main Road", "use": "residential", "floors": 2, "match_status": "matched", "severity": "none", "review": false, "name": null}}, {"type": "Feature", "geometry": {"type": "Point", "coordinates": [76.9615985, 11.0343708]}, "properties": {"id": "w1251144690", "kind": "building", "street": "Rathinapuri (Sanganoor) Main Road", "use": "commercial", "floors": null, "match_status": "matched", "severity": "none", "review": false, "name": "tmt bars & structural"}}, {"type": "Feature", "geometry": {"type": "Point", "coordinates": [76.9615263, 11.034477]}, "properties": {"id": "w1251143850", "kind": "building", "street": "Rathinapuri (Sanganoor) Main Road", "use": "residential", "floors": 2, "match_status": "discrepancy", "severity": "medium", "review": false, "name": null}}, {"type": "Feature", "geometry": {"type": "Point", "coordinates": [76.9618919, 11.0365151]}, "properties": {"id": "w1251143810", "kind": "building", "street": "Rathinapuri (Sanganoor) Main Road", "use": null, "floors": null, "match_status": "matched", "severity": "none", "review": false, "name": null}}, {"type": "Feature", "geometry": {"type": "Point", "coordinates": [76.9613877, 11.0370415]}, "properties": {"id": "w1251144408", "kind": "building", "street": "Rathinapuri (Sanganoor) Main Road", "use": "commercial", "floors": 1, "match_status": "matched", "severity": "none", "review": false, "name": null}}, {"type": "Feature", "geometry": {"type": "Point", "coordinates": [76.9614458, 11.0364393]}, "properties": {"id": "w1251142863", "kind": "building", "street": "Rathinapuri (Sanganoor) Main Road", "use": "commercial", "floors": 1, "match_status": "matched", "severity": "none", "review": false, "name": "auto bodiger"}}, {"type": "Feature", "geometry": {"type": "Point", "coordinates": [76.9614552, 11.0363587]}, "properties": {"id": "w1251144432", "kind": "building", "street": "Rathinapuri (Sanganoor) Main Road", "use": "commercial", "floors": null, "match_status": "matched", "severity": "none", "review": false, "name": "UASECIER"}}, {"type": "Feature", "geometry": {"type": "Point", "coordinates": [76.9613085, 11.035217]}, "properties": {"id": "w1251144149", "kind": "building", "street": "Rathinapuri (Sanganoor) Main Road", "use": "under_construction", "floors": 1, "match_status": "matched", "severity": "none", "review": true, "name": null}}, {"type": "Feature", "geometry": {"type": "Point", "coordinates": [76.9654074, 11.0338375]}, "properties": {"id": "w1251631000", "kind": "building", "street": "Rathinapuri (Sanganoor) Main Road", "use": null, "floors": null, "match_status": "discrepancy", "severity": "medium", "review": false, "name": null}}, {"type": "Feature", "geometry": {"type": "Point", "coordinates": [76.9618433, 11.0361184]}, "properties": {"id": "w1251143149", "kind": "building", "street": "Rathinapuri (Sanganoor) Main Road", "use": "commercial", "floors": null, "match_status": "discrepancy", "severity": "medium", "review": false, "name": "anand auto service & bodyshop"}}, {"type": "Feature", "geometry": {"type": "Point", "coordinates": [76.9615385, 11.0359187]}, "properties": {"id": "w1251142749", "kind": "building", "street": "Rathinapuri (Sanganoor) Main Road", "use": "commercial", "floors": 1, "match_status": "matched", "severity": "none", "review": false, "name": "mixed machine"}}, {"type": "Feature", "geometry": {"type": "Point", "coordinates": [76.9615038, 11.0354827]}, "properties": {"id": "w1251142403", "kind": "building", "street": "Rathinapuri (Sanganoor) Main Road", "use": "commercial", "floors": null, "match_status": "matched", "severity": "none", "review": false, "name": "LANESMEM"}}, {"type": "Feature", "geometry": {"type": "Point", "coordinates": [76.9615225, 11.0353935]}, "properties": {"id": "w1251143226", "kind": "building", "street": "Rathinapuri (Sanganoor) Main Road", "use": "commercial", "floors": 1, "match_status": "matched", "severity": "none", "review": false, "name": "Crackers"}}, {"type": "Feature", "geometry": {"type": "Point", "coordinates": [76.9614974, 11.0356713]}, "properties": {"id": "w1251142401", "kind": "building", "street": "Rathinapuri (Sanganoor) Main Road", "use": "residential", "floors": 1, "match_status": "discrepancy", "severity": "medium", "review": true, "name": null}}, {"type": "Feature", "geometry": {"type": "Point", "coordinates": [76.9615819, 11.0355132]}, "properties": {"id": "w1251143927", "kind": "building", "street": "Rathinapuri (Sanganoor) Main Road", "use": "commercial", "floors": 1, "match_status": "discrepancy", "severity": "medium", "review": true, "name": null}}, {"type": "Feature", "geometry": {"type": "Point", "coordinates": [76.9615746, 11.0360403]}, "properties": {"id": "w1251144025", "kind": "building", "street": "Rathinapuri (Sanganoor) Main Road", "use": "commercial", "floors": 1, "match_status": "matched", "severity": "none", "review": false, "name": null}}, {"type": "Feature", "geometry": {"type": "Point", "coordinates": [76.9611954, 11.0367524]}, "properties": {"id": "w1238009025", "kind": "building", "street": "Rathinapuri (Sanganoor) Main Road", "use": "commercial", "floors": 1, "match_status": "matched", "severity": "none", "review": false, "name": "win way"}}, {"type": "Feature", "geometry": {"type": "Point", "coordinates": [76.9615102, 11.0356049]}, "properties": {"id": "w1251142400", "kind": "building", "street": "Rathinapuri (Sanganoor) Main Road", "use": null, "floors": null, "match_status": "matched", "severity": "none", "review": false, "name": null}}, {"type": "Feature", "geometry": {"type": "Point", "coordinates": [76.9610573, 11.0342478]}, "properties": {"id": "w1251144428", "kind": "building", "street": "Rathinapuri (Sanganoor) Main Road", "use": null, "floors": null, "match_status": "matched", "severity": "none", "review": false, "name": null}}, {"type": "Feature", "geometry": {"type": "Point", "coordinates": [76.9618139, 11.0356097]}, "properties": {"id": "w1251144485", "kind": "building", "street": "Rathinapuri (Sanganoor) Main Road", "use": "residential", "floors": 2, "match_status": "discrepancy", "severity": "medium", "review": true, "name": null}}, {"type": "Feature", "geometry": {"type": "Point", "coordinates": [76.9610595, 11.0344428]}, "properties": {"id": "w1251143989", "kind": "building", "street": "Rathinapuri (Sanganoor) Main Road", "use": "commercial", "floors": null, "match_status": "discrepancy", "severity": "medium", "review": true, "name": "mm kitchen engineering"}}, {"type": "Feature", "geometry": {"type": "Point", "coordinates": [76.9617695, 11.0358146]}, "properties": {"id": "asset-0000", "kind": "pole", "confidence": "medium", "street": "Rathinapuri (Sanganoor) Main Road", "uncertainty_m": 5.0, "register_status": "discrepancy"}}, {"type": "Feature", "geometry": {"type": "Point", "coordinates": [76.9615623, 11.0351285]}, "properties": {"id": "asset-0001", "kind": "pole", "confidence": "low", "street": "Rathinapuri (Sanganoor) Main Road", "uncertainty_m": 5.0, "register_status": "unconfirmed_detection"}}, {"type": "Feature", "geometry": {"type": "Point", "coordinates": [76.9614194, 11.0347069]}, "properties": {"id": "asset-0002", "kind": "pole", "confidence": "medium", "street": "Rathinapuri (Sanganoor) Main Road", "uncertainty_m": 2.4, "register_status": "discrepancy"}}, {"type": "Feature", "geometry": {"type": "Point", "coordinates": [76.9616679, 11.036495]}, "properties": {"id": "asset-0003", "kind": "pole", "confidence": "low", "street": "Rathinapuri (Sanganoor) Main Road", "uncertainty_m": 5.0, "register_status": "unconfirmed_detection"}}, {"type": "Feature", "geometry": {"type": "Point", "coordinates": [76.9614435, 11.0349497]}, "properties": {"id": "asset-0004", "kind": "streetlight", "confidence": "medium", "street": "Rathinapuri (Sanganoor) Main Road", "uncertainty_m": 5.0, "register_status": "matched"}}, {"type": "Feature", "geometry": {"type": "Point", "coordinates": [76.9614564, 11.0345265]}, "properties": {"id": "asset-0005", "kind": "pole", "confidence": "medium", "street": "Rathinapuri (Sanganoor) Main Road", "uncertainty_m": 5.0, "register_status": "discrepancy"}}, {"type": "Feature", "geometry": {"type": "Point", "coordinates": [76.9617455, 11.0360528]}, "properties": {"id": "asset-0006", "kind": "pole", "confidence": "medium", "street": "Rathinapuri (Sanganoor) Main Road", "uncertainty_m": 5.0, "register_status": "unrecorded_asset"}}, {"type": "Feature", "geometry": {"type": "Point", "coordinates": [76.961574, 11.0366983]}, "properties": {"id": "asset-0007", "kind": "pole", "confidence": "low", "street": "Rathinapuri (Sanganoor) Main Road", "uncertainty_m": 2.4, "register_status": "unconfirmed_detection"}}, {"type": "Feature", "geometry": {"type": "Point", "coordinates": [76.9614401, 11.0342092]}, "properties": {"id": "asset-0008", "kind": "pole", "confidence": "low", "street": "Rathinapuri (Sanganoor) Main Road", "uncertainty_m": 5.0, "register_status": "unconfirmed_detection"}}, {"type": "Feature", "geometry": {"type": "Point", "coordinates": [76.9616313, 11.0355818]}, "properties": {"id": "asset-0009", "kind": "pole", "confidence": "medium", "street": "Rathinapuri (Sanganoor) Main Road", "uncertainty_m": 2.4, "register_status": "matched"}}, {"type": "Feature", "geometry": {"type": "Point", "coordinates": [76.9654545, 11.0341831]}, "properties": {"id": "asset-0010", "kind": "pole", "confidence": "low", "street": "Rathinapuri (Sanganoor) Main Road", "uncertainty_m": 5.0, "register_status": "unconfirmed_detection"}}, {"type": "Feature", "geometry": {"type": "Point", "coordinates": [76.9615731, 11.0352819]}, "properties": {"id": "asset-0011", "kind": "pole", "confidence": "low", "street": "Rathinapuri (Sanganoor) Main Road", "uncertainty_m": 5.0, "register_status": "unconfirmed_detection"}}, {"type": "Feature", "geometry": {"type": "Point", "coordinates": [76.961386, 11.0369977]}, "properties": {"id": "asset-0012", "kind": "pole", "confidence": "low", "street": "Rathinapuri (Sanganoor) Main Road", "uncertainty_m": 5.0, "register_status": "unconfirmed_detection"}}, {"type": "Feature", "geometry": {"type": "Point", "coordinates": [76.9655175, 11.0338331]}, "properties": {"id": "asset-0013", "kind": "streetlight", "confidence": "low", "street": "Rathinapuri (Sanganoor) Main Road", "uncertainty_m": 5.0, "register_status": "unconfirmed_detection"}}, {"type": "Feature", "geometry": {"type": "Point", "coordinates": [76.9616232, 11.0357497]}, "properties": {"id": "asset-0014", "kind": "pole", "confidence": "medium", "street": "Rathinapuri (Sanganoor) Main Road", "uncertainty_m": 2.4, "register_status": "unrecorded_asset"}}, {"type": "Feature", "geometry": {"type": "Point", "coordinates": [76.9613366, 11.0349775]}, "properties": {"id": "asset-0015", "kind": "pole", "confidence": "low", "street": "Rathinapuri (Sanganoor) Main Road", "uncertainty_m": 5.0, "register_status": "unconfirmed_detection"}}, {"type": "Feature", "geometry": {"type": "Point", "coordinates": [76.9613837, 11.0368222]}, "properties": {"id": "asset-0016", "kind": "pole", "confidence": "low", "street": "Rathinapuri (Sanganoor) Main Road", "uncertainty_m": 5.0, "register_status": "unconfirmed_detection"}}, {"type": "Feature", "geometry": {"type": "Point", "coordinates": [76.9613972, 11.0343263]}, "properties": {"id": "asset-0017", "kind": "pole", "confidence": "medium", "street": "Rathinapuri (Sanganoor) Main Road", "uncertainty_m": 2.4, "register_status": "matched"}}, {"type": "Feature", "geometry": {"type": "Point", "coordinates": [76.961483, 11.0352687]}, "properties": {"id": "asset-0018", "kind": "pole", "confidence": "medium", "street": "Rathinapuri (Sanganoor) Main Road", "uncertainty_m": 2.4, "register_status": "unrecorded_asset"}}, {"type": "Feature", "geometry": {"type": "Point", "coordinates": [76.9655271, 11.0337204]}, "properties": {"id": "asset-0019", "kind": "pole", "confidence": "low", "street": "Rathinapuri (Sanganoor) Main Road", "uncertainty_m": 2.4, "register_status": "unconfirmed_detection"}}, {"type": "Feature", "geometry": {"type": "Point", "coordinates": [76.9614461, 11.0369903]}, "properties": {"id": "asset-0020", "kind": "pole", "confidence": "low", "street": "Rathinapuri (Sanganoor) Main Road", "uncertainty_m": 5.0, "register_status": "unconfirmed_detection"}}, {"type": "Feature", "geometry": {"type": "Point", "coordinates": [76.9614396, 11.0351038]}, "properties": {"id": "asset-0021", "kind": "pole", "confidence": "low", "street": "Rathinapuri (Sanganoor) Main Road", "uncertainty_m": 2.4, "register_status": "unconfirmed_detection"}}, {"type": "Feature", "geometry": {"type": "Point", "coordinates": [76.9614193, 11.0350122]}, "properties": {"id": "asset-0022", "kind": "pole", "confidence": "low", "street": "Rathinapuri (Sanganoor) Main Road", "uncertainty_m": 5.0, "register_status": "unconfirmed_detection"}}, {"type": "Feature", "geometry": {"type": "Point", "coordinates": [76.965716, 11.0342183]}, "properties": {"id": "asset-0023", "kind": "streetlight", "confidence": "low", "street": "Rathinapuri (Sanganoor) Main Road", "uncertainty_m": 5.0, "register_status": "unconfirmed_detection"}}, {"type": "Feature", "geometry": {"type": "Point", "coordinates": [76.9656316, 11.0342016]}, "properties": {"id": "asset-0024", "kind": "streetlight", "confidence": "low", "street": "Rathinapuri (Sanganoor) Main Road", "uncertainty_m": 2.4, "register_status": "unconfirmed_detection"}}, {"type": "Feature", "geometry": {"type": "Point", "coordinates": [76.9616394, 11.0360153]}, "properties": {"id": "asset-0025", "kind": "pole", "confidence": "low", "street": "Rathinapuri (Sanganoor) Main Road", "uncertainty_m": 5.0, "register_status": "unconfirmed_detection"}}, {"type": "Feature", "geometry": {"type": "Point", "coordinates": [76.9615832, 11.0362614]}, "properties": {"id": "asset-0026", "kind": "pole", "confidence": "low", "street": "Rathinapuri (Sanganoor) Main Road", "uncertainty_m": 2.4, "register_status": "unconfirmed_detection"}}, {"type": "Feature", "geometry": {"type": "Point", "coordinates": [76.9616183, 11.0358341]}, "properties": {"id": "asset-0027", "kind": "pole", "confidence": "low", "street": "Rathinapuri (Sanganoor) Main Road", "uncertainty_m": 5.0, "register_status": "unconfirmed_detection"}}, {"type": "Feature", "geometry": {"type": "Point", "coordinates": [76.9616047, 11.0355026]}, "properties": {"id": "asset-0028", "kind": "pole", "confidence": "low", "street": "Rathinapuri (Sanganoor) Main Road", "uncertainty_m": 5.0, "register_status": "unconfirmed_detection"}}, {"type": "Feature", "geometry": {"type": "Point", "coordinates": [76.9614674, 11.03447]}, "properties": {"id": "asset-0029", "kind": "pole", "confidence": "high", "street": "Rathinapuri (Sanganoor) Main Road", "uncertainty_m": 0.5, "register_status": "unrecorded_asset"}}, {"type": "Feature", "geometry": {"type": "Point", "coordinates": [76.961511, 11.0353265]}, "properties": {"id": "asset-0030", "kind": "streetlight", "confidence": "high", "street": "Rathinapuri (Sanganoor) Main Road", "uncertainty_m": 0.5, "register_status": "matched"}}, {"type": "Feature", "geometry": {"type": "Point", "coordinates": [76.9617456, 11.0361245]}, "properties": {"id": "asset-0031", "kind": "pole", "confidence": "medium", "street": "Rathinapuri (Sanganoor) Main Road", "uncertainty_m": 5.0, "register_status": "matched"}}, {"type": "Feature", "geometry": {"type": "Point", "coordinates": [76.9615465, 11.0365165]}, "properties": {"id": "asset-0032", "kind": "streetlight", "confidence": "high", "street": "Rathinapuri (Sanganoor) Main Road", "uncertainty_m": 0.5, "register_status": "discrepancy"}}, {"type": "Feature", "geometry": {"type": "Point", "coordinates": [76.9655709, 11.0336333]}, "properties": {"id": "asset-0033", "kind": "streetlight", "confidence": "medium", "street": "Rathinapuri (Sanganoor) Main Road", "uncertainty_m": 2.4, "register_status": "matched"}}, {"type": "Feature", "geometry": {"type": "Point", "coordinates": [76.9614389, 11.0351564]}, "properties": {"id": "asset-0034", "kind": "pole", "confidence": "medium", "street": "Rathinapuri (Sanganoor) Main Road", "uncertainty_m": 5.0, "register_status": "matched"}}, {"type": "Feature", "geometry": {"type": "LineString", "coordinates": [[76.96166037386618, 11.03610881402638], [76.96166661526892, 11.03558346396052]]}, "properties": {"id": "gap60-000", "kind": "streetlight_gap", "street": "Rathinapuri (Sanganoor) Main Road", "length_m": 70, "gap_type": "poles present, no lamp detected"}}, {"type": "Feature", "geometry": {"type": "Point", "coordinates": [76.9654764, 11.0341967]}, "properties": {"id": "ub-0000", "kind": "unmapped_business", "name": "Evon", "street": "Rathinapuri (Sanganoor) Main Road", "approximate": true}}]}