{"type": "FeatureCollection", "features": [{"type": "Feature", "geometry": {"type": "Point", "coordinates": [76.9849442, 11.0405068]}, "properties": {"id": "w1237283837", "kind": "building", "street": "5th Street, KRG Nagar", "use": null, "floors": null, "match_status": "matched", "severity": "none", "review": false, "name": null}}, {"type": "Feature", "geometry": {"type": "Point", "coordinates": [76.9847338, 11.0406848]}, "properties": {"id": "w1236667634", "kind": "building", "street": "5th Street, KRG Nagar", "use": "residential", "floors": 2, "match_status": "matched", "severity": "none", "review": false, "name": null}}, {"type": "Feature", "geometry": {"type": "Point", "coordinates": [76.9849093, 11.0406527]}, "properties": {"id": "w1236667384", "kind": "building", "street": "5th Street, KRG Nagar", "use": "residential", "floors": 2, "match_status": "matched", "severity": "none", "review": false, "name": null}}, {"type": "Feature", "geometry": {"type": "Point", "coordinates": [76.9847561, 11.0405058]}, "properties": {"id": "w1237283672", "kind": "building", "street": "5th Street, KRG Nagar", "use": "residential", "floors": 2, "match_status": "matched", "severity": "none", "review": false, "name": null}}, {"type": "Feature", "geometry": {"type": "Point", "coordinates": [76.9849013, 11.0407306]}, "properties": {"id": "w1237284038", "kind": "building", "street": "5th Street, KRG Nagar", "use": "residential", "floors": 2, "match_status": "matched", "severity": "none", "review": false, "name": null}}, {"type": "Feature", "geometry": {"type": "Point", "coordinates": [76.9847571, 11.0405291]}, "properties": {"id": "asset-0000", "kind": "pole", "confidence": "medium", "street": "5th Street, KRG Nagar", "uncertainty_m": 5.0, "register_status": "discrepancy"}}, {"type": "Feature", "geometry": {"type": "Point", "coordinates": [76.9848022, 11.040757]}, "properties": {"id": "asset-0001", "kind": "pole", "confidence": "low", "street": "5th Street, KRG Nagar", "uncertainty_m": 5.0, "register_status": "unconfirmed_detection"}}, {"type": "Feature", "geometry": {"type": "Point", "coordinates": [76.9848395, 11.0405072]}, "properties": {"id": "asset-0002", "kind": "pole", "confidence": "medium", "street": "5th Street, KRG Nagar", "uncertainty_m": 2.4, "register_status": "discrepancy"}}]}