{"type": "FeatureCollection", "features": [{"type": "Feature", "geometry": {"type": "Point", "coordinates": [78.6843403, 10.8054054]}, "properties": {"id": "w1229049685", "kind": "building", "street": "Bharathidasan Salai", "use": null, "floors": null, "match_status": "matched", "severity": "none", "review": false, "name": null}}, {"type": "Feature", "geometry": {"type": "Point", "coordinates": [78.6852035, 10.8049183]}, "properties": {"id": "w167036803", "kind": "building", "street": "Bharathidasan Salai", "use": "institutional", "floors": 4, "match_status": "discrepancy", "severity": "medium", "review": true, "name": null}}, {"type": "Feature", "geometry": {"type": "Point", "coordinates": [78.6895806, 10.8020834]}, "properties": {"id": "w1229049694", "kind": "building", "street": "Bharathidasan Salai", "use": "commercial", "floors": 1, "match_status": "matched", "severity": "none", "review": true, "name": null}}, {"type": "Feature", "geometry": {"type": "Point", "coordinates": [78.6863773, 10.8045358]}, "properties": {"id": "w456124855", "kind": "building", "street": "Bharathidasan Salai", "use": "commercial", "floors": 2, "match_status": "matched", "severity": "none", "review": false, "name": null}}, {"type": "Feature", "geometry": {"type": "Point", "coordinates": [78.686657, 10.8051735]}, "properties": {"id": "w735111700", "kind": "building", "street": "Bharathidasan Salai", "use": "commercial", "floors": null, "match_status": "matched", "severity": "none", "review": false, "name": "VGP GARDEN ESTATES PVT.LTD."}}, {"type": "Feature", "geometry": {"type": "Point", "coordinates": [78.6876996, 10.8044254]}, "properties": {"id": "w1231077054", "kind": "building", "street": "Bharathidasan Salai", "use": "commercial", "floors": 2, "match_status": "matched", "severity": "none", "review": false, "name": "d j alameda automobiles private limited"}}, {"type": "Feature", "geometry": {"type": "Point", "coordinates": [78.6889174, 10.8017653]}, "properties": {"id": "w1229050662", "kind": "building", "street": "Bharathidasan Salai", "use": null, "floors": null, "match_status": "matched", "severity": "none", "review": false, "name": null}}, {"type": "Feature", "geometry": {"type": "Point", "coordinates": [78.68926, 10.8012688]}, "properties": {"id": "w1229050275", "kind": "building", "street": "Bharathidasan Salai", "use": null, "floors": null, "match_status": "matched", "severity": "none", "review": false, "name": null}}, {"type": "Feature", "geometry": {"type": "Point", "coordinates": [78.6860273, 10.8043018]}, "properties": {"id": "w1229050065", "kind": "building", "street": "Bharathidasan Salai", "use": "commercial", "floors": 3, "match_status": "matched", "severity": "none", "review": true, "name": "The Chennai Mobiles"}}, {"type": "Feature", "geometry": {"type": "Point", "coordinates": [78.6883526, 10.8026331]}, "properties": {"id": "w1229050646", "kind": "building", "street": "Bharathidasan Salai", "use": null, "floors": null, "match_status": "matched", "severity": "none", "review": false, "name": "spell"}}, {"type": "Feature", "geometry": {"type": "Point", "coordinates": [78.6872935, 10.8045711]}, "properties": {"id": "w1229050520", "kind": "building", "street": "Bharathidasan Salai", "use": "commercial", "floors": 3, "match_status": "matched", "severity": "none", "review": false, "name": "chinese wok"}}, {"type": "Feature", "geometry": {"type": "Point", "coordinates": [78.6873788, 10.8037003]}, "properties": {"id": "w1229050557", "kind": "building", "street": "Bharathidasan Salai", "use": "commercial", "floors": 2, "match_status": "matched", "severity": "none", "review": false, "name": "muscat engineering consultancy pvt. ltd."}}, {"type": "Feature", "geometry": {"type": "Point", "coordinates": [78.6844061, 10.8068363]}, "properties": {"id": "w1229050340", "kind": "building", "street": "Bharathidasan Salai", "use": null, "floors": null, "match_status": "matched", "severity": "none", "review": false, "name": "Roasdra"}}, {"type": "Feature", "geometry": {"type": "Point", "coordinates": [78.6856255, 10.8047426]}, "properties": {"id": "w1229050603", "kind": "building", "street": "Bharathidasan Salai", "use": "commercial", "floors": 1, "match_status": "matched", "severity": "none", "review": false, "name": "city dental clinic"}}, {"type": "Feature", "geometry": {"type": "Point", "coordinates": [78.6851405, 10.8053031]}, "properties": {"id": "w1229049682", "kind": "building", "street": "Bharathidasan Salai", "use": null, "floors": null, "match_status": "matched", "severity": "none", "review": false, "name": "human nation"}}, {"type": "Feature", "geometry": {"type": "Point", "coordinates": [78.6834621, 10.8065731]}, "properties": {"id": "w1229050106", "kind": "building", "street": "Bharathidasan Salai", "use": "commercial", "floors": null, "match_status": "matched", "severity": "none", "review": false, "name": null}}, {"type": "Feature", "geometry": {"type": "Point", "coordinates": [78.6882356, 10.8035534]}, "properties": {"id": "w1229050305", "kind": "building", "street": "Bharathidasan Salai", "use": "commercial", "floors": 5, "match_status": "discrepancy", "severity": "medium", "review": true, "name": "Mesaya Mirukku"}}, {"type": "Feature", "geometry": {"type": "Point", "coordinates": [78.6831727, 10.8076454]}, "properties": {"id": "w1231079639", "kind": "building", "street": "Bharathidasan Salai", "use": "residential", "floors": 3, "match_status": "discrepancy", "severity": "high", "review": true, "name": null}}, {"type": "Feature", "geometry": {"type": "Point", "coordinates": [78.6816064, 10.8087335]}, "properties": {"id": "w1227735400", "kind": "building", "street": "Bharathidasan Salai", "use": "commercial", "floors": null, "match_status": "matched", "severity": "none", "review": false, "name": "maa kauvery"}}, {"type": "Feature", "geometry": {"type": "Point", "coordinates": [78.6860197, 10.8047819]}, "properties": {"id": "w1229050448", "kind": "building", "street": "Bharathidasan Salai", "use": "commercial", "floors": 2, "match_status": "matched", "severity": "none", "review": false, "name": "advanced hair bioskin"}}, {"type": "Feature", "geometry": {"type": "Point", "coordinates": [78.6875248, 10.8035122]}, "properties": {"id": "w1229050150", "kind": "building", "street": "Bharathidasan Salai", "use": "commercial", "floors": 2, "match_status": "matched", "severity": "none", "review": false, "name": "replacement"}}, {"type": "Feature", "geometry": {"type": "Point", "coordinates": [78.6834059, 10.8073109]}, "properties": {"id": "w1229050547", "kind": "building", "street": "Bharathidasan Salai", "use": "commercial", "floors": null, "match_status": "matched", "severity": "none", "review": false, "name": "astrack"}}, {"type": "Feature", "geometry": {"type": "Point", "coordinates": [78.6889762, 10.8030097]}, "properties": {"id": "w1229049699", "kind": "building", "street": "Bharathidasan Salai", "use": "commercial", "floors": null, "match_status": "matched", "severity": "none", "review": false, "name": "cycle world"}}, {"type": "Feature", "geometry": {"type": "Point", "coordinates": [78.6832934, 10.8084574]}, "properties": {"id": "w1227735212", "kind": "building", "street": "Bharathidasan Salai", "use": null, "floors": null, "match_status": "matched", "severity": "none", "review": false, "name": null}}, {"type": "Feature", "geometry": {"type": "Point", "coordinates": [78.685655, 10.805048]}, "properties": {"id": "w1229050318", "kind": "building", "street": "Bharathidasan Salai", "use": "commercial", "floors": 2, "match_status": "matched", "severity": "none", "review": true, "name": null}}, {"type": "Feature", "geometry": {"type": "Point", "coordinates": [78.6832081, 10.8074433]}, "properties": {"id": "w1229050569", "kind": "building", "street": "Bharathidasan Salai", "use": "commercial", "floors": 2, "match_status": "matched", "severity": "none", "review": true, "name": "beauty salon"}}, {"type": "Feature", "geometry": {"type": "Point", "coordinates": [78.6822384, 10.8077458]}, "properties": {"id": "w1227734885", "kind": "building", "street": "Bharathidasan Salai", "use": "commercial", "floors": 4, "match_status": "discrepancy", "severity": "medium", "review": true, "name": "Kannan Restaurant"}}, {"type": "Feature", "geometry": {"type": "Point", "coordinates": [78.6890937, 10.8026945]}, "properties": {"id": "w1229049698", "kind": "building", "street": "Bharathidasan Salai", "use": "commercial", "floors": null, "match_status": "matched", "severity": "none", "review": false, "name": "EYEMAXOPTICS"}}, {"type": "Feature", "geometry": {"type": "Point", "coordinates": [78.6829264, 10.8069231]}, "properties": {"id": "w1229050192", "kind": "building", "street": "Bharathidasan Salai", "use": "commercial", "floors": 1, "match_status": "matched", "severity": "none", "review": false, "name": "Trichy Titans Cafe"}}, {"type": "Feature", "geometry": {"type": "Point", "coordinates": [78.6879674, 10.8039048]}, "properties": {"id": "w1231076803", "kind": "building", "street": "Bharathidasan Salai", "use": "commercial", "floors": null, "match_status": "discrepancy", "severity": "medium", "review": true, "name": "AUTOMOBILES"}}, {"type": "Feature", "geometry": {"type": "Point", "coordinates": [78.683959, 10.8061409]}, "properties": {"id": "w1229050539", "kind": "building", "street": "Bharathidasan Salai", "use": "residential", "floors": 2, "match_status": "discrepancy", "severity": "medium", "review": true, "name": "greentrends"}}, {"type": "Feature", "geometry": {"type": "Point", "coordinates": [78.6837697, 10.8064588]}, "properties": {"id": "w1229050573", "kind": "building", "street": "Bharathidasan Salai", "use": "under_construction", "floors": 1, "match_status": "matched", "severity": "none", "review": true, "name": null}}, {"type": "Feature", "geometry": {"type": "Point", "coordinates": [78.684526, 10.8065015]}, "properties": {"id": "w1229050681", "kind": "building", "street": "Bharathidasan Salai", "use": "commercial", "floors": 2, "match_status": "matched", "severity": "none", "review": false, "name": null}}, {"type": "Feature", "geometry": {"type": "Point", "coordinates": [78.6898611, 10.8016638]}, "properties": {"id": "w1229050490", "kind": "building", "street": "Bharathidasan Salai", "use": "commercial", "floors": 2, "match_status": "matched", "severity": "none", "review": false, "name": null}}, {"type": "Feature", "geometry": {"type": "Point", "coordinates": [78.688524, 10.803387]}, "properties": {"id": "w1229050564", "kind": "building", "street": "Bharathidasan Salai", "use": null, "floors": null, "match_status": "matched", "severity": "none", "review": false, "name": "amaron"}}, {"type": "Feature", "geometry": {"type": "Point", "coordinates": [78.68673, 10.8040712]}, "properties": {"id": "w1229050487", "kind": "building", "street": "Bharathidasan Salai", "use": "commercial", "floors": null, "match_status": "matched", "severity": "none", "review": false, "name": "raj sticker works"}}, {"type": "Feature", "geometry": {"type": "Point", "coordinates": [78.6831236, 10.8069827]}, "properties": {"id": "w1229050678", "kind": "building", "street": "Bharathidasan Salai", "use": "residential", "floors": 2, "match_status": "discrepancy", "severity": "medium", "review": true, "name": null}}, {"type": "Feature", "geometry": {"type": "Point", "coordinates": [78.6834757, 10.8071648]}, "properties": {"id": "w1229050549", "kind": "building", "street": "Bharathidasan Salai", "use": "residential", "floors": 2, "match_status": "discrepancy", "severity": "medium", "review": true, "name": null}}, {"type": "Feature", "geometry": {"type": "Point", "coordinates": [78.6833331, 10.8078326]}, "properties": {"id": "w1227734827", "kind": "building", "street": "Bharathidasan Salai", "use": null, "floors": null, "match_status": "matched", "severity": "none", "review": false, "name": null}}, {"type": "Feature", "geometry": {"type": "Point", "coordinates": [78.6838137, 10.8062819]}, "properties": {"id": "w1229050524", "kind": "building", "street": "Bharathidasan Salai", "use": "residential", "floors": 1, "match_status": "discrepancy", "severity": "medium", "review": true, "name": null}}, {"type": "Feature", "geometry": {"type": "Point", "coordinates": [78.6829241, 10.807593]}, "properties": {"id": "w1229050693", "kind": "building", "street": "Bharathidasan Salai", "use": "residential", "floors": 4, "match_status": "discrepancy", "severity": "medium", "review": true, "name": "bismi"}}, {"type": "Feature", "geometry": {"type": "Point", "coordinates": [78.687013, 10.804092]}, "properties": {"id": "w1229050320", "kind": "building", "street": "Bharathidasan Salai", "use": "commercial", "floors": 1, "match_status": "matched", "severity": "none", "review": true, "name": "sucaa Sign Wors"}}, {"type": "Feature", "geometry": {"type": "Point", "coordinates": [78.6875904, 10.8032787]}, "properties": {"id": "w1229050480", "kind": "building", "street": "Bharathidasan Salai", "use": "commercial", "floors": null, "match_status": "discrepancy", "severity": "medium", "review": true, "name": "padmakshi hospital"}}, {"type": "Feature", "geometry": {"type": "Point", "coordinates": [78.6870095, 10.8047834]}, "properties": {"id": "w1231076852", "kind": "building", "street": "Bharathidasan Salai", "use": "residential", "floors": 1, "match_status": "discrepancy", "severity": "medium", "review": true, "name": null}}, {"type": "Feature", "geometry": {"type": "Point", "coordinates": [78.6877557, 10.8032534]}, "properties": {"id": "w1229050636", "kind": "building", "street": "Bharathidasan Salai", "use": "commercial", "floors": 3, "match_status": "discrepancy", "severity": "high", "review": true, "name": "PADMAKSHI"}}, {"type": "Feature", "geometry": {"type": "Point", "coordinates": [78.6834549, 10.8076637]}, "properties": {"id": "w1229050143", "kind": "building", "street": "Bharathidasan Salai", "use": null, "floors": null, "match_status": "matched", "severity": "none", "review": false, "name": null}}, {"type": "Feature", "geometry": {"type": "Point", "coordinates": [78.6877507, 10.8039799]}, "properties": {"id": "w1231076953", "kind": "building", "street": "Bharathidasan Salai", "use": "under_construction", "floors": 2, "match_status": "matched", "severity": "none", "review": false, "name": null}}, {"type": "Feature", "geometry": {"type": "Point", "coordinates": [78.6868848, 10.8041161]}, "properties": {"id": "w1229050228", "kind": "building", "street": "Bharathidasan Salai", "use": "commercial", "floors": 1, "match_status": "matched", "severity": "none", "review": true, "name": "New Car Land"}}, {"type": "Feature", "geometry": {"type": "Point", "coordinates": [78.6840946, 10.8067796]}, "properties": {"id": "w1229050512", "kind": "building", "street": "Bharathidasan Salai", "use": null, "floors": null, "match_status": "matched", "severity": "none", "review": false, "name": null}}, {"type": "Feature", "geometry": {"type": "Point", "coordinates": [78.6872465, 10.8038188]}, "properties": {"id": "w1229050289", "kind": "building", "street": "Bharathidasan Salai", "use": "commercial", "floors": 2, "match_status": "discrepancy", "severity": "medium", "review": false, "name": "MUSCAT ENGINEERING"}}, {"type": "Feature", "geometry": {"type": "Point", "coordinates": [78.683191, 10.8066806]}, "properties": {"id": "w1229050308", "kind": "building", "street": "Bharathidasan Salai", "use": "residential", "floors": 3, "match_status": "discrepancy", "severity": "high", "review": true, "name": null}}, {"type": "Feature", "geometry": {"type": "Point", "coordinates": [78.6870917, 10.8039791]}, "properties": {"id": "w1229050329", "kind": "building", "street": "Bharathidasan Salai", "use": "mixed", "floors": 2, "match_status": "matched", "severity": "none", "review": false, "name": null}}, {"type": "Feature", "geometry": {"type": "Point", "coordinates": [78.683635, 10.8070751]}, "properties": {"id": "w1229050507", "kind": "building", "street": "Bharathidasan Salai", "use": null, "floors": null, "match_status": "matched", "severity": "none", "review": false, "name": null}}, {"type": "Feature", "geometry": {"type": "Point", "coordinates": [78.6894699, 10.8011844]}, "properties": {"id": "w1231088366", "kind": "building", "street": "Bharathidasan Salai", "use": "residential", "floors": 2, "match_status": "discrepancy", "severity": "medium", "review": true, "name": null}}, {"type": "Feature", "geometry": {"type": "Point", "coordinates": [78.6877468, 10.8035028]}, "properties": {"id": "w1229050687", "kind": "building", "street": "Bharathidasan Salai", "use": "commercial", "floors": 2, "match_status": "no_record", "severity": "high", "review": true, "name": "pla motors"}}, {"type": "Feature", "geometry": {"type": "Point", "coordinates": [78.6829966, 10.8074892]}, "properties": {"id": "w1229050085", "kind": "building", "street": "Bharathidasan Salai", "use": "mixed", "floors": 3, "match_status": "discrepancy", "severity": "medium", "review": true, "name": null}}, {"type": "Feature", "geometry": {"type": "Point", "coordinates": [78.6842191, 10.8061476]}, "properties": {"id": "w1229050357", "kind": "building", "street": "Bharathidasan Salai", "use": "commercial", "floors": 3, "match_status": "discrepancy", "severity": "medium", "review": true, "name": "green trend"}}, {"type": "Feature", "geometry": {"type": "Point", "coordinates": [78.6872371, 10.8039284]}, "properties": {"id": "w1231076940", "kind": "building", "street": "Bharathidasan Salai", "use": "residential", "floors": 2, "match_status": "matched", "severity": "none", "review": false, "name": "PAINT"}}, {"type": "Feature", "geometry": {"type": "Point", "coordinates": [78.6816502, 10.8081323]}, "properties": {"id": "w1227734756", "kind": "building", "street": "Bharathidasan Salai", "use": null, "floors": null, "match_status": "matched", "severity": "none", "review": false, "name": null}}, {"type": "Feature", "geometry": {"type": "Point", "coordinates": [78.6883837, 10.8034199]}, "properties": {"id": "w1229050222", "kind": "building", "street": "Bharathidasan Salai", "use": "commercial", "floors": 1, "match_status": "no_record", "severity": "high", "review": true, "name": null}}, {"type": "Feature", "geometry": {"type": "Point", "coordinates": [78.6888494, 10.8032379]}, "properties": {"id": "w1229050583", "kind": "building", "street": "Bharathidasan Salai", "use": "residential", "floors": 1, "match_status": "discrepancy", "severity": "high", "review": true, "name": "SWNeostee"}}, {"type": "Feature", "geometry": {"type": "Point", "coordinates": [78.6843401, 10.806591]}, "properties": {"id": "w1231079223", "kind": "building", "street": "Bharathidasan Salai", "use": null, "floors": null, "match_status": "matched", "severity": "none", "review": true, "name": "umeranza"}}, {"type": "Feature", "geometry": {"type": "Point", "coordinates": [78.6876823, 10.8035661]}, "properties": {"id": "w1229050367", "kind": "building", "street": "Bharathidasan Salai", "use": "mixed", "floors": 2, "match_status": "matched", "severity": "none", "review": true, "name": "SPARE PARTS DEALERS FOR"}}, {"type": "Feature", "geometry": {"type": "Point", "coordinates": [78.6818249, 10.8078466]}, "properties": {"id": "w1229050200", "kind": "building", "street": "Bharathidasan Salai", "use": "commercial", "floors": null, "match_status": "matched", "severity": "none", "review": false, "name": "banana leaf"}}, {"type": "Feature", "geometry": {"type": "Point", "coordinates": [78.6878159, 10.8039382]}, "properties": {"id": "w1231076904", "kind": "building", "street": "Bharathidasan Salai", "use": "under_construction", "floors": 2, "match_status": "discrepancy", "severity": "medium", "review": true, "name": null}}, {"type": "Feature", "geometry": {"type": "Point", "coordinates": [78.6893546, 10.8026788]}, "properties": {"id": "w1229050417", "kind": "building", "street": "Bharathidasan Salai", "use": "commercial", "floors": null, "match_status": "discrepancy", "severity": "medium", "review": true, "name": "fathima"}}, {"type": "Feature", "geometry": {"type": "Point", "coordinates": [78.6811976, 10.8086169]}, "properties": {"id": "asset-0000", "kind": "pole", "confidence": "low", "street": "Bharathidasan Salai", "uncertainty_m": 3.5, "register_status": "unconfirmed_detection"}}, {"type": "Feature", "geometry": {"type": "Point", "coordinates": [78.6839124, 10.8067859]}, "properties": {"id": "asset-0001", "kind": "pole", "confidence": "low", "street": "Bharathidasan Salai", "uncertainty_m": 3.5, "register_status": "unconfirmed_detection"}}, {"type": "Feature", "geometry": {"type": "Point", "coordinates": [78.6896969, 10.8016715]}, "properties": {"id": "asset-0002", "kind": "streetlight", "confidence": "low", "street": "Bharathidasan Salai", "uncertainty_m": 3.5, "register_status": "unconfirmed_detection"}}, {"type": "Feature", "geometry": {"type": "Point", "coordinates": [78.681889, 10.8083697]}, "properties": {"id": "asset-0003", "kind": "pole", "confidence": "low", "street": "Bharathidasan Salai", "uncertainty_m": 3.5, "register_status": "unconfirmed_detection"}}, {"type": "Feature", "geometry": {"type": "Point", "coordinates": [78.6810908, 10.8086888]}, "properties": {"id": "asset-0004", "kind": "pole", "confidence": "low", "street": "Bharathidasan Salai", "uncertainty_m": 3.5, "register_status": "unconfirmed_detection"}}, {"type": "Feature", "geometry": {"type": "Point", "coordinates": [78.6847284, 10.8061953]}, "properties": {"id": "asset-0005", "kind": "pole", "confidence": "low", "street": "Bharathidasan Salai", "uncertainty_m": 3.5, "register_status": "unconfirmed_detection"}}, {"type": "Feature", "geometry": {"type": "Point", "coordinates": [78.6889253, 10.8027818]}, "properties": {"id": "asset-0006", "kind": "pole", "confidence": "medium", "street": "Bharathidasan Salai", "uncertainty_m": 3.5, "register_status": "discrepancy"}}, {"type": "Feature", "geometry": {"type": "Point", "coordinates": [78.6871734, 10.8040825]}, "properties": {"id": "asset-0007", "kind": "streetlight", "confidence": "medium", "street": "Bharathidasan Salai", "uncertainty_m": 3.5, "register_status": "discrepancy"}}, {"type": "Feature", "geometry": {"type": "Point", "coordinates": [78.6896956, 10.8017428]}, "properties": {"id": "asset-0008", "kind": "pole", "confidence": "low", "street": "Bharathidasan Salai", "uncertainty_m": 3.5, "register_status": "unconfirmed_detection"}}, {"type": "Feature", "geometry": {"type": "Point", "coordinates": [78.681637, 10.8083604]}, "properties": {"id": "asset-0009", "kind": "pole", "confidence": "low", "street": "Bharathidasan Salai", "uncertainty_m": 3.5, "register_status": "unconfirmed_detection"}}, {"type": "Feature", "geometry": {"type": "Point", "coordinates": [78.6887323, 10.803002]}, "properties": {"id": "asset-0010", "kind": "pole", "confidence": "high", "street": "Bharathidasan Salai", "uncertainty_m": 1.36, "register_status": "matched"}}, {"type": "Feature", "geometry": {"type": "Point", "coordinates": [78.6854152, 10.805705]}, "properties": {"id": "asset-0011", "kind": "pole", "confidence": "low", "street": "Bharathidasan Salai", "uncertainty_m": 3.5, "register_status": "unconfirmed_detection"}}, {"type": "Feature", "geometry": {"type": "Point", "coordinates": [78.6861224, 10.805244]}, "properties": {"id": "asset-0012", "kind": "pole", "confidence": "low", "street": "Bharathidasan Salai", "uncertainty_m": 3.5, "register_status": "unconfirmed_detection"}}, {"type": "Feature", "geometry": {"type": "Point", "coordinates": [78.6834989, 10.8069842]}, "properties": {"id": "asset-0013", "kind": "pole", "confidence": "low", "street": "Bharathidasan Salai", "uncertainty_m": 3.5, "register_status": "unconfirmed_detection"}}, {"type": "Feature", "geometry": {"type": "Point", "coordinates": [78.6851747, 10.8056113]}, "properties": {"id": "asset-0014", "kind": "pole", "confidence": "medium", "street": "Bharathidasan Salai", "uncertainty_m": 3.5, "register_status": "discrepancy"}}, {"type": "Feature", "geometry": {"type": "Point", "coordinates": [78.6864161, 10.8049084]}, "properties": {"id": "asset-0015", "kind": "streetlight", "confidence": "low", "street": "Bharathidasan Salai", "uncertainty_m": 3.5, "register_status": "unconfirmed_detection"}}, {"type": "Feature", "geometry": {"type": "Point", "coordinates": [78.682042, 10.808037]}, "properties": {"id": "asset-0016", "kind": "pole", "confidence": "medium", "street": "Bharathidasan Salai", "uncertainty_m": 3.5, "register_status": "unrecorded_asset"}}, {"type": "Feature", "geometry": {"type": "Point", "coordinates": [78.6824112, 10.8078805]}, "properties": {"id": "asset-0017", "kind": "pole", "confidence": "low", "street": "Bharathidasan Salai", "uncertainty_m": 3.5, "register_status": "unconfirmed_detection"}}, {"type": "Feature", "geometry": {"type": "Point", "coordinates": [78.687409, 10.8038553]}, "properties": {"id": "asset-0018", "kind": "pole", "confidence": "medium", "street": "Bharathidasan Salai", "uncertainty_m": 3.5, "register_status": "matched"}}, {"type": "Feature", "geometry": {"type": "Point", "coordinates": [78.6816885, 10.8082632]}, "properties": {"id": "asset-0019", "kind": "pole", "confidence": "medium", "street": "Bharathidasan Salai", "uncertainty_m": 3.5, "register_status": "unrecorded_asset"}}, {"type": "Feature", "geometry": {"type": "Point", "coordinates": [78.68281, 10.8075755]}, "properties": {"id": "asset-0020", "kind": "pole", "confidence": "medium", "street": "Bharathidasan Salai", "uncertainty_m": 3.5, "register_status": "matched"}}, {"type": "Feature", "geometry": {"type": "Point", "coordinates": [78.6815392, 10.8085122]}, "properties": {"id": "asset-0021", "kind": "streetlight", "confidence": "low", "street": "Bharathidasan Salai", "uncertainty_m": 3.5, "register_status": "unconfirmed_detection"}}, {"type": "Feature", "geometry": {"type": "Point", "coordinates": [78.6817408, 10.8083693]}, "properties": {"id": "asset-0022", "kind": "pole", "confidence": "low", "street": "Bharathidasan Salai", "uncertainty_m": 3.5, "register_status": "unconfirmed_detection"}}, {"type": "Feature", "geometry": {"type": "Point", "coordinates": [78.6848757, 10.8057449]}, "properties": {"id": "asset-0023", "kind": "pole", "confidence": "low", "street": "Bharathidasan Salai", "uncertainty_m": 3.5, "register_status": "unconfirmed_detection"}}, {"type": "Feature", "geometry": {"type": "Point", "coordinates": [78.681746, 10.8082522]}, "properties": {"id": "asset-0024", "kind": "pole", "confidence": "low", "street": "Bharathidasan Salai", "uncertainty_m": 3.5, "register_status": "unconfirmed_detection"}}, {"type": "Feature", "geometry": {"type": "Point", "coordinates": [78.6826233, 10.8074995]}, "properties": {"id": "asset-0025", "kind": "pole", "confidence": "low", "street": "Bharathidasan Salai", "uncertainty_m": 3.5, "register_status": "unconfirmed_detection"}}, {"type": "Feature", "geometry": {"type": "Point", "coordinates": [78.6840585, 10.8062801]}, "properties": {"id": "asset-0026", "kind": "streetlight", "confidence": "low", "street": "Bharathidasan Salai", "uncertainty_m": 3.5, "register_status": "unconfirmed_detection"}}, {"type": "Feature", "geometry": {"type": "Point", "coordinates": [78.6891506, 10.8021535]}, "properties": {"id": "asset-0027", "kind": "pole", "confidence": "low", "street": "Bharathidasan Salai", "uncertainty_m": 3.5, "register_status": "unconfirmed_detection"}}, {"type": "Feature", "geometry": {"type": "Point", "coordinates": [78.6830423, 10.8077361]}, "properties": {"id": "asset-0028", "kind": "pole", "confidence": "medium", "street": "Bharathidasan Salai", "uncertainty_m": 3.5, "register_status": "unrecorded_asset"}}, {"type": "Feature", "geometry": {"type": "Point", "coordinates": [78.6895394, 10.8019395]}, "properties": {"id": "asset-0029", "kind": "pole", "confidence": "medium", "street": "Bharathidasan Salai", "uncertainty_m": 3.5, "register_status": "unrecorded_asset"}}, {"type": "Feature", "geometry": {"type": "Point", "coordinates": [78.6827076, 10.8076949]}, "properties": {"id": "asset-0030", "kind": "pole", "confidence": "low", "street": "Bharathidasan Salai", "uncertainty_m": 3.5, "register_status": "unconfirmed_detection"}}, {"type": "Feature", "geometry": {"type": "Point", "coordinates": [78.6829934, 10.807391]}, "properties": {"id": "asset-0031", "kind": "pole", "confidence": "medium", "street": "Bharathidasan Salai", "uncertainty_m": 3.5, "register_status": "matched"}}, {"type": "Feature", "geometry": {"type": "Point", "coordinates": [78.6848545, 10.8059522]}, "properties": {"id": "asset-0032", "kind": "pole", "confidence": "low", "street": "Bharathidasan Salai", "uncertainty_m": 3.5, "register_status": "unconfirmed_detection"}}, {"type": "Feature", "geometry": {"type": "Point", "coordinates": [78.6823635, 10.80792]}, "properties": {"id": "asset-0033", "kind": "pole", "confidence": "low", "street": "Bharathidasan Salai", "uncertainty_m": 3.5, "register_status": "unconfirmed_detection"}}, {"type": "Feature", "geometry": {"type": "Point", "coordinates": [78.6831271, 10.8072966]}, "properties": {"id": "asset-0034", "kind": "pole", "confidence": "medium", "street": "Bharathidasan Salai", "uncertainty_m": 3.5, "register_status": "matched"}}, {"type": "Feature", "geometry": {"type": "Point", "coordinates": [78.6862807, 10.8047892]}, "properties": {"id": "asset-0035", "kind": "streetlight", "confidence": "medium", "street": "Bharathidasan Salai", "uncertainty_m": 3.5, "register_status": "discrepancy"}}, {"type": "Feature", "geometry": {"type": "Point", "coordinates": [78.687938, 10.8036899]}, "properties": {"id": "asset-0036", "kind": "pole", "confidence": "low", "street": "Bharathidasan Salai", "uncertainty_m": 3.5, "register_status": "unconfirmed_detection"}}, {"type": "Feature", "geometry": {"type": "Point", "coordinates": [78.6860656, 10.8049284]}, "properties": {"id": "asset-0037", "kind": "pole", "confidence": "medium", "street": "Bharathidasan Salai", "uncertainty_m": 3.5, "register_status": "matched"}}, {"type": "Feature", "geometry": {"type": "Point", "coordinates": [78.6837857, 10.8066264]}, "properties": {"id": "asset-0038", "kind": "pole", "confidence": "medium", "street": "Bharathidasan Salai", "uncertainty_m": 3.5, "register_status": "matched"}}, {"type": "Feature", "geometry": {"type": "Point", "coordinates": [78.6831461, 10.8073785]}, "properties": {"id": "asset-0039", "kind": "pole", "confidence": "low", "street": "Bharathidasan Salai", "uncertainty_m": 3.5, "register_status": "unconfirmed_detection"}}, {"type": "Feature", "geometry": {"type": "Point", "coordinates": [78.6815244, 10.808413]}, "properties": {"id": "asset-0040", "kind": "pole", "confidence": "medium", "street": "Bharathidasan Salai", "uncertainty_m": 3.5, "register_status": "matched"}}, {"type": "Feature", "geometry": {"type": "Point", "coordinates": [78.6834225, 10.8069039]}, "properties": {"id": "asset-0041", "kind": "pole", "confidence": "medium", "street": "Bharathidasan Salai", "uncertainty_m": 3.5, "register_status": "matched"}}, {"type": "Feature", "geometry": {"type": "Point", "coordinates": [78.6814736, 10.8085183]}, "properties": {"id": "asset-0042", "kind": "pole", "confidence": "low", "street": "Bharathidasan Salai", "uncertainty_m": 3.5, "register_status": "unconfirmed_detection"}}, {"type": "Feature", "geometry": {"type": "Point", "coordinates": [78.6840397, 10.8063467]}, "properties": {"id": "asset-0043", "kind": "pole", "confidence": "low", "street": "Bharathidasan Salai", "uncertainty_m": 3.5, "register_status": "unconfirmed_detection"}}, {"type": "Feature", "geometry": {"type": "Point", "coordinates": [78.6830832, 10.8071477]}, "properties": {"id": "asset-0044", "kind": "pole", "confidence": "low", "street": "Bharathidasan Salai", "uncertainty_m": 3.5, "register_status": "unconfirmed_detection"}}, {"type": "Feature", "geometry": {"type": "Point", "coordinates": [78.68529, 10.8057458]}, "properties": {"id": "asset-0045", "kind": "pole", "confidence": "low", "street": "Bharathidasan Salai", "uncertainty_m": 3.5, "register_status": "unconfirmed_detection"}}, {"type": "Feature", "geometry": {"type": "Point", "coordinates": [78.6868901, 10.8046747]}, "properties": {"id": "asset-0046", "kind": "pole", "confidence": "medium", "street": "Bharathidasan Salai", "uncertainty_m": 3.5, "register_status": "unrecorded_asset"}}, {"type": "Feature", "geometry": {"type": "Point", "coordinates": [78.6813715, 10.8085327]}, "properties": {"id": "asset-0047", "kind": "pole", "confidence": "low", "street": "Bharathidasan Salai", "uncertainty_m": 3.5, "register_status": "unconfirmed_detection"}}, {"type": "Feature", "geometry": {"type": "Point", "coordinates": [78.6893721, 10.8018171]}, "properties": {"id": "asset-0048", "kind": "pole", "confidence": "low", "street": "Bharathidasan Salai", "uncertainty_m": 3.5, "register_status": "unconfirmed_detection"}}, {"type": "Feature", "geometry": {"type": "Point", "coordinates": [78.6831189, 10.8077584]}, "properties": {"id": "asset-0049", "kind": "pole", "confidence": "medium", "street": "Bharathidasan Salai", "uncertainty_m": 3.5, "register_status": "matched"}}, {"type": "Feature", "geometry": {"type": "Point", "coordinates": [78.6833056, 10.806776]}, "properties": {"id": "asset-0050", "kind": "pole", "confidence": "low", "street": "Bharathidasan Salai", "uncertainty_m": 3.5, "register_status": "unconfirmed_detection"}}, {"type": "Feature", "geometry": {"type": "Point", "coordinates": [78.6828767, 10.8073522]}, "properties": {"id": "asset-0051", "kind": "pole", "confidence": "medium", "street": "Bharathidasan Salai", "uncertainty_m": 3.5, "register_status": "discrepancy"}}, {"type": "Feature", "geometry": {"type": "Point", "coordinates": [78.6896435, 10.8013516]}, "properties": {"id": "asset-0052", "kind": "pole", "confidence": "medium", "street": "Bharathidasan Salai", "uncertainty_m": 3.5, "register_status": "discrepancy"}}, {"type": "Feature", "geometry": {"type": "Point", "coordinates": [78.6825741, 10.8076222]}, "properties": {"id": "asset-0053", "kind": "pole", "confidence": "low", "street": "Bharathidasan Salai", "uncertainty_m": 3.5, "register_status": "unconfirmed_detection"}}, {"type": "Feature", "geometry": {"type": "Point", "coordinates": [78.6883148, 10.8033676]}, "properties": {"id": "asset-0054", "kind": "pole", "confidence": "medium", "street": "Bharathidasan Salai", "uncertainty_m": 3.5, "register_status": "matched"}}, {"type": "Feature", "geometry": {"type": "Point", "coordinates": [78.6883413, 10.8033067]}, "properties": {"id": "asset-0055", "kind": "streetlight", "confidence": "low", "street": "Bharathidasan Salai", "uncertainty_m": 3.5, "register_status": "unconfirmed_detection"}}, {"type": "Feature", "geometry": {"type": "Point", "coordinates": [78.6818491, 10.8081871]}, "properties": {"id": "asset-0056", "kind": "pole", "confidence": "low", "street": "Bharathidasan Salai", "uncertainty_m": 3.5, "register_status": "unconfirmed_detection"}}, {"type": "Feature", "geometry": {"type": "Point", "coordinates": [78.6898585, 10.8012053]}, "properties": {"id": "asset-0057", "kind": "pole", "confidence": "medium", "street": "Bharathidasan Salai", "uncertainty_m": 3.5, "register_status": "discrepancy"}}, {"type": "Feature", "geometry": {"type": "Point", "coordinates": [78.6862489, 10.8050457]}, "properties": {"id": "asset-0058", "kind": "pole", "confidence": "low", "street": "Bharathidasan Salai", "uncertainty_m": 3.5, "register_status": "unconfirmed_detection"}}, {"type": "Feature", "geometry": {"type": "Point", "coordinates": [78.6833489, 10.8069753]}, "properties": {"id": "asset-0059", "kind": "pole", "confidence": "low", "street": "Bharathidasan Salai", "uncertainty_m": 3.5, "register_status": "unconfirmed_detection"}}, {"type": "Feature", "geometry": {"type": "Point", "coordinates": [78.6862061, 10.805143]}, "properties": {"id": "asset-0060", "kind": "pole", "confidence": "low", "street": "Bharathidasan Salai", "uncertainty_m": 3.5, "register_status": "unconfirmed_detection"}}, {"type": "Feature", "geometry": {"type": "Point", "coordinates": [78.6840171, 10.8064331]}, "properties": {"id": "asset-0061", "kind": "pole", "confidence": "low", "street": "Bharathidasan Salai", "uncertainty_m": 3.5, "register_status": "unconfirmed_detection"}}, {"type": "Feature", "geometry": {"type": "Point", "coordinates": [78.6893396, 10.8020558]}, "properties": {"id": "asset-0062", "kind": "streetlight", "confidence": "low", "street": "Bharathidasan Salai", "uncertainty_m": 3.5, "register_status": "unconfirmed_detection"}}, {"type": "Feature", "geometry": {"type": "Point", "coordinates": [78.6836996, 10.8066213]}, "properties": {"id": "asset-0063", "kind": "pole", "confidence": "low", "street": "Bharathidasan Salai", "uncertainty_m": 3.5, "register_status": "unconfirmed_detection"}}, {"type": "Feature", "geometry": {"type": "Point", "coordinates": [78.6829067, 10.8076509]}, "properties": {"id": "asset-0064", "kind": "pole", "confidence": "low", "street": "Bharathidasan Salai", "uncertainty_m": 3.5, "register_status": "unconfirmed_detection"}}, {"type": "Feature", "geometry": {"type": "Point", "coordinates": [78.6882872, 10.8032598]}, "properties": {"id": "asset-0065", "kind": "pole", "confidence": "low", "street": "Bharathidasan Salai", "uncertainty_m": 3.5, "register_status": "unconfirmed_detection"}}, {"type": "Feature", "geometry": {"type": "Point", "coordinates": [78.6854845, 10.8053411]}, "properties": {"id": "asset-0066", "kind": "streetlight", "confidence": "low", "street": "Bharathidasan Salai", "uncertainty_m": 3.5, "register_status": "unconfirmed_detection"}}, {"type": "Feature", "geometry": {"type": "Point", "coordinates": [78.6888494, 10.8029299]}, "properties": {"id": "asset-0067", "kind": "pole", "confidence": "low", "street": "Bharathidasan Salai", "uncertainty_m": 3.5, "register_status": "unconfirmed_detection"}}, {"type": "Feature", "geometry": {"type": "Point", "coordinates": [78.6838712, 10.8065414]}, "properties": {"id": "asset-0068", "kind": "pole", "confidence": "low", "street": "Bharathidasan Salai", "uncertainty_m": 3.5, "register_status": "unconfirmed_detection"}}, {"type": "Feature", "geometry": {"type": "Point", "coordinates": [78.6852468, 10.8055714]}, "properties": {"id": "asset-0069", "kind": "pole", "confidence": "low", "street": "Bharathidasan Salai", "uncertainty_m": 3.5, "register_status": "unconfirmed_detection"}}, {"type": "Feature", "geometry": {"type": "Point", "coordinates": [78.6891243, 10.8022264]}, "properties": {"id": "asset-0070", "kind": "pole", "confidence": "low", "street": "Bharathidasan Salai", "uncertainty_m": 3.5, "register_status": "unconfirmed_detection"}}, {"type": "Feature", "geometry": {"type": "Point", "coordinates": [78.6876441, 10.8039325]}, "properties": {"id": "asset-0071", "kind": "pole", "confidence": "high", "street": "Bharathidasan Salai", "uncertainty_m": 0.5, "register_status": "matched"}}, {"type": "Feature", "geometry": {"type": "Point", "coordinates": [78.6822225, 10.8080872]}, "properties": {"id": "asset-0072", "kind": "pole", "confidence": "medium", "street": "Bharathidasan Salai", "uncertainty_m": 3.5, "register_status": "matched"}}, {"type": "Feature", "geometry": {"type": "Point", "coordinates": [78.6840226, 10.8067002]}, "properties": {"id": "asset-0073", "kind": "pole", "confidence": "medium", "street": "Bharathidasan Salai", "uncertainty_m": 3.5, "register_status": "unrecorded_asset"}}, {"type": "Feature", "geometry": {"type": "Point", "coordinates": [78.6825197, 10.8076653]}, "properties": {"id": "asset-0074", "kind": "pole", "confidence": "medium", "street": "Bharathidasan Salai", "uncertainty_m": 3.5, "register_status": "unrecorded_asset"}}, {"type": "Feature", "geometry": {"type": "Point", "coordinates": [78.687116, 10.8041852]}, "properties": {"id": "asset-0075", "kind": "pole", "confidence": "medium", "street": "Bharathidasan Salai", "uncertainty_m": 3.5, "register_status": "discrepancy"}}, {"type": "Feature", "geometry": {"type": "Point", "coordinates": [78.6850465, 10.8059721]}, "properties": {"id": "asset-0076", "kind": "pole", "confidence": "medium", "street": "Bharathidasan Salai", "uncertainty_m": 3.5, "register_status": "discrepancy"}}, {"type": "Feature", "geometry": {"type": "Point", "coordinates": [78.6843161, 10.8064775]}, "properties": {"id": "asset-0077", "kind": "pole", "confidence": "medium", "street": "Bharathidasan Salai", "uncertainty_m": 3.5, "register_status": "matched"}}, {"type": "Feature", "geometry": {"type": "Point", "coordinates": [78.6897817, 10.8012434]}, "properties": {"id": "asset-0078", "kind": "pole", "confidence": "medium", "street": "Bharathidasan Salai", "uncertainty_m": 3.5, "register_status": "matched"}}, {"type": "Feature", "geometry": {"type": "Point", "coordinates": [78.6841843, 10.8062351]}, "properties": {"id": "asset-0079", "kind": "pole", "confidence": "medium", "street": "Bharathidasan Salai", "uncertainty_m": 3.5, "register_status": "discrepancy"}}, {"type": "Feature", "geometry": {"type": "Point", "coordinates": [78.6895348, 10.8015964]}, "properties": {"id": "asset-0080", "kind": "pole", "confidence": "medium", "street": "Bharathidasan Salai", "uncertainty_m": 3.5, "register_status": "matched"}}, {"type": "Feature", "geometry": {"type": "Point", "coordinates": [78.6836169, 10.8067746]}, "properties": {"id": "asset-0081", "kind": "pole", "confidence": "medium", "street": "Bharathidasan Salai", "uncertainty_m": 3.5, "register_status": "matched"}}, {"type": "Feature", "geometry": {"type": "Point", "coordinates": [78.6898467, 10.8014919]}, "properties": {"id": "asset-0082", "kind": "pole", "confidence": "medium", "street": "Bharathidasan Salai", "uncertainty_m": 3.5, "register_status": "unrecorded_asset"}}, {"type": "Feature", "geometry": {"type": "Point", "coordinates": [78.684889, 10.8058009]}, "properties": {"id": "asset-0083", "kind": "pole", "confidence": "medium", "street": "Bharathidasan Salai", "uncertainty_m": 3.5, "register_status": "matched"}}, {"type": "Feature", "geometry": {"type": "Point", "coordinates": [78.682751, 10.8074324]}, "properties": {"id": "asset-0084", "kind": "pole", "confidence": "medium", "street": "Bharathidasan Salai", "uncertainty_m": 3.5, "register_status": "matched"}}, {"type": "Feature", "geometry": {"type": "Point", "coordinates": [78.6857007, 10.80517]}, "properties": {"id": "asset-0085", "kind": "pole", "confidence": "medium", "street": "Bharathidasan Salai", "uncertainty_m": 3.5, "register_status": "discrepancy"}}, {"type": "Feature", "geometry": {"type": "Point", "coordinates": [78.6865664, 10.8049399]}, "properties": {"id": "asset-0086", "kind": "pole", "confidence": "medium", "street": "Bharathidasan Salai", "uncertainty_m": 3.5, "register_status": "matched"}}, {"type": "Feature", "geometry": {"type": "LineString", "coordinates": [[78.68911616923859, 10.80230520476817], [78.68851595998109, 10.80306891323802]]}, "properties": {"id": "gap60-000", "kind": "streetlight_gap", "street": "Bharathidasan Salai", "length_m": 116, "gap_type": "poles present, no lamp detected"}}, {"type": "Feature", "geometry": {"type": "LineString", "coordinates": [[78.68794854430115, 10.8034035639693], [78.68742352831879, 10.80396706632699]]}, "properties": {"id": "gap60-001", "kind": "streetlight_gap", "street": "Bharathidasan Salai", "length_m": 96, "gap_type": "poles present, no lamp detected"}}, {"type": "Feature", "geometry": {"type": "LineString", "coordinates": [[78.68524858099859, 10.80563115382588], [78.68453048229424, 10.80612425865292]]}, "properties": {"id": "gap60-002", "kind": "streetlight_gap", "street": "Bharathidasan Salai", "length_m": 107, "gap_type": "poles present, no lamp detected"}}, {"type": "Feature", "geometry": {"type": "LineString", "coordinates": [[78.6839562938415, 10.80655082616738], [78.68174535616993, 10.8083271815032]]}, "properties": {"id": "gap60-003", "kind": "streetlight_gap", "street": "Bharathidasan Salai", "length_m": 324, "gap_type": "poles present, no lamp detected"}}, {"type": "Feature", "geometry": {"type": "LineString", "coordinates": [[78.681895938262, 10.80829376276659], [78.68397273636015, 10.80663945297671]]}, "properties": {"id": "gap60-004", "kind": "streetlight_gap", "street": "Bharathidasan Salai", "length_m": 304, "gap_type": "poles present, no lamp detected"}}, {"type": "Feature", "geometry": {"type": "LineString", "coordinates": [[78.68444126046228, 10.80630650018268], [78.68536177323641, 10.80567785219022]]}, "properties": {"id": "gap60-005", "kind": "streetlight_gap", "street": "Bharathidasan Salai", "length_m": 134, "gap_type": "poles present, no lamp detected"}}, {"type": "Feature", "geometry": {"type": "LineString", "coordinates": [[78.68758976492953, 10.80394116707337], [78.6879693995023, 10.80359485612702]]}, "properties": {"id": "gap60-006", "kind": "streetlight_gap", "street": "Bharathidasan Salai", "length_m": 68, "gap_type": "poles present, no lamp detected"}}, {"type": "Feature", "geometry": {"type": "LineString", "coordinates": [[78.68865727254943, 10.80302294969411], [78.68922381884423, 10.80230611903158]]}, "properties": {"id": "gap60-007", "kind": "streetlight_gap", "street": "Bharathidasan Salai", "length_m": 110, "gap_type": "poles present, no lamp detected"}}, {"type": "Feature", "geometry": {"type": "Point", "coordinates": [78.6819656, 10.8081401]}, "properties": {"id": "ub-0000", "kind": "unmapped_business", "name": "maa kauvery", "street": "Bharathidasan Salai", "approximate": true}}, {"type": "Feature", "geometry": {"type": "Point", "coordinates": [78.681407, 10.808549]}, "properties": {"id": "ub-0001", "kind": "unmapped_business", "name": "maa kauvery", "street": "Bharathidasan Salai", "approximate": true}}, {"type": "Feature", "geometry": {"type": "Point", "coordinates": [78.6846882, 10.8061307]}, "properties": {"id": "ub-0002", "kind": "unmapped_business", "name": "ashley land", "street": "Bharathidasan Salai", "approximate": true}}, {"type": "Feature", "geometry": {"type": "Point", "coordinates": [78.6897232, 10.8017422]}, "properties": {"id": "ub-0003", "kind": "unmapped_business", "name": "sims", "street": "Bharathidasan Salai", "approximate": true}}, {"type": "Feature", "geometry": {"type": "Point", "coordinates": [78.6856, 10.8056378]}, "properties": {"id": "ub-0004", "kind": "unmapped_business", "name": "prasar bharati", "street": "Bharathidasan Salai", "approximate": true}}, {"type": "Feature", "geometry": {"type": "Point", "coordinates": [78.6814355, 10.8084522]}, "properties": {"id": "ub-0005", "kind": "unmapped_business", "name": "Indian Oil", "street": "Bharathidasan Salai", "approximate": true}}, {"type": "Feature", "geometry": {"type": "Point", "coordinates": [78.6878619, 10.803573]}, "properties": {"id": "ub-0006", "kind": "unmapped_business", "name": "M.L AUTOMOBILE", "street": "Bharathidasan Salai", "approximate": true}}, {"type": "Feature", "geometry": {"type": "Point", "coordinates": [78.6876991, 10.8039509]}, "properties": {"id": "ub-0007", "kind": "unmapped_business", "name": "sri om silks", "street": "Bharathidasan Salai", "approximate": true}}, {"type": "Feature", "geometry": {"type": "Point", "coordinates": [78.6821628, 10.8079254]}, "properties": {"id": "ub-0008", "kind": "unmapped_business", "name": "kannan", "street": "Bharathidasan Salai", "approximate": true}}, {"type": "Feature", "geometry": {"type": "Point", "coordinates": [78.6888146, 10.802908]}, "properties": {"id": "ub-0009", "kind": "unmapped_business", "name": "cycle world", "street": "Bharathidasan Salai", "approximate": true}}, {"type": "Feature", "geometry": {"type": "Point", "coordinates": [78.6893376, 10.8018477]}, "properties": {"id": "ub-0010", "kind": "unmapped_business", "name": "bsnl", "street": "Bharathidasan Salai", "approximate": true}}, {"type": "Feature", "geometry": {"type": "Point", "coordinates": [78.68855, 10.8030001]}, "properties": {"id": "ub-0011", "kind": "unmapped_business", "name": "sri sri sri", "street": "Bharathidasan Salai", "approximate": true}}, {"type": "Feature", "geometry": {"type": "Point", "coordinates": [78.6897163, 10.8011059]}, "properties": {"id": "ub-0012", "kind": "unmapped_business", "name": "Mangalam Travel & Tours", "street": "Bharathidasan Salai", "approximate": true}}, {"type": "Feature", "geometry": {"type": "Point", "coordinates": [78.6861762, 10.8048534]}, "properties": {"id": "ub-0013", "kind": "unmapped_business", "name": "dekamali jeya", "street": "Bharathidasan Salai", "approximate": true}}, {"type": "Feature", "geometry": {"type": "Point", "coordinates": [78.6829283, 10.8072705]}, "properties": {"id": "ub-0014", "kind": "unmapped_business", "name": "hot chicken", "street": "Bharathidasan Salai", "approximate": true}}, {"type": "Feature", "geometry": {"type": "Point", "coordinates": [78.6896677, 10.8018461]}, "properties": {"id": "ub-0015", "kind": "unmapped_business", "name": "Bank of India", "street": "Bharathidasan Salai", "approximate": true}}, {"type": "Feature", "geometry": {"type": "Point", "coordinates": [78.6875538, 10.8037243]}, "properties": {"id": "ub-0016", "kind": "unmapped_business", "name": "mark cafe", "street": "Bharathidasan Salai", "approximate": true}}, {"type": "Feature", "geometry": {"type": "Point", "coordinates": [78.6855421, 10.8053223]}, "properties": {"id": "ub-0017", "kind": "unmapped_business", "name": "Indian Overseas Bank", "street": "Bharathidasan Salai", "approximate": true}}, {"type": "Feature", "geometry": {"type": "Point", "coordinates": [78.6852156, 10.8058912]}, "properties": {"id": "ub-0018", "kind": "unmapped_business", "name": "sudhip annips", "street": "Bharathidasan Salai", "approximate": true}}, {"type": "Feature", "geometry": {"type": "Point", "coordinates": [78.68878, 10.8027273]}, "properties": {"id": "ub-0019", "kind": "unmapped_business", "name": "bsnl", "street": "Bharathidasan Salai", "approximate": true}}, {"type": "Feature", "geometry": {"type": "Point", "coordinates": [78.6861224, 10.8050091]}, "properties": {"id": "ub-0020", "kind": "unmapped_business", "name": "the super specialty dental clinic", "street": "Bharathidasan Salai", "approximate": true}}, {"type": "Feature", "geometry": {"type": "Point", "coordinates": [78.6854039, 10.805778]}, "properties": {"id": "ub-0021", "kind": "unmapped_business", "name": "trichyappallcity corporation", "street": "Bharathidasan Salai", "approximate": true}}, {"type": "Feature", "geometry": {"type": "Point", "coordinates": [78.6881402, 10.8032359]}, "properties": {"id": "ub-0022", "kind": "unmapped_business", "name": "tyres alignment balancing nitrogen", "street": "Bharathidasan Salai", "approximate": true}}, {"type": "Feature", "geometry": {"type": "Point", "coordinates": [78.6843477, 10.8062498]}, "properties": {"id": "ub-0023", "kind": "unmapped_business", "name": "pearl stores", "street": "Bharathidasan Salai", "approximate": true}}, {"type": "Feature", "geometry": {"type": "Point", "coordinates": [78.6812053, 10.8088225]}, "properties": {"id": "ub-0024", "kind": "unmapped_business", "name": "sri lakshmi", "street": "Bharathidasan Salai", "approximate": true}}, {"type": "Feature", "geometry": {"type": "Point", "coordinates": [78.6828853, 10.8072912]}, "properties": {"id": "ub-0025", "kind": "unmapped_business", "name": "cantonment police station", "street": "Bharathidasan Salai", "approximate": true}}, {"type": "Feature", "geometry": {"type": "Point", "coordinates": [78.6872972, 10.8043488]}, "properties": {"id": "ub-0026", "kind": "unmapped_business", "name": "muttu", "street": "Bharathidasan Salai", "approximate": true}}, {"type": "Feature", "geometry": {"type": "Point", "coordinates": [78.6890112, 10.8022736]}, "properties": {"id": "ub-0027", "kind": "unmapped_business", "name": "The Royal Noodle Counter", "street": "Bharathidasan Salai", "approximate": true}}, {"type": "Feature", "geometry": {"type": "Point", "coordinates": [78.6819018, 10.8084021]}, "properties": {"id": "ub-0028", "kind": "unmapped_business", "name": "Indian Overseas Bank", "street": "Bharathidasan Salai", "approximate": true}}, {"type": "Feature", "geometry": {"type": "Point", "coordinates": [78.6886221, 10.8030966]}, "properties": {"id": "ub-0029", "kind": "unmapped_business", "name": "jsw neosteel", "street": "Bharathidasan Salai", "approximate": true}}, {"type": "Feature", "geometry": {"type": "Point", "coordinates": [78.6881754, 10.803326]}, "properties": {"id": "ub-0030", "kind": "unmapped_business", "name": "D J Auto Mechanic", "street": "Bharathidasan Salai", "approximate": true}}, {"type": "Feature", "geometry": {"type": "Point", "coordinates": [78.6827191, 10.8074378]}, "properties": {"id": "ub-0031", "kind": "unmapped_business", "name": "morals", "street": "Bharathidasan Salai", "approximate": true}}, {"type": "Feature", "geometry": {"type": "Point", "coordinates": [78.6845316, 10.8062534]}, "properties": {"id": "ub-0032", "kind": "unmapped_business", "name": "green mode", "street": "Bharathidasan Salai", "approximate": true}}, {"type": "Feature", "geometry": {"type": "Point", "coordinates": [78.6896417, 10.8012268]}, "properties": {"id": "ub-0033", "kind": "unmapped_business", "name": "speed post", "street": "Bharathidasan Salai", "approximate": true}}, {"type": "Feature", "geometry": {"type": "Point", "coordinates": [78.685931, 10.8049971]}, "properties": {"id": "ub-0034", "kind": "unmapped_business", "name": "Bharat Petrolium", "street": "Bharathidasan Salai", "approximate": true}}, {"type": "Feature", "geometry": {"type": "Point", "coordinates": [78.6852397, 10.8057393]}, "properties": {"id": "ub-0035", "kind": "unmapped_business", "name": "united nagar 4", "street": "Bharathidasan Salai", "approximate": true}}]}